name,street,city,state,zip,neighborhood,community_district,accepts_ebt,type,subtype,bread,bread_whole_wheat,dairy,dairy_low_fat,fish_fresh,fish_sustainably_caught,fresh_produce,fruit,greens,health_natural,herbs,juices_natural,local_food,meat_deli,meat_free_range,meat_low_fat,meat_packaged,organics,prepared_food,star_bodega,vegetables,other,surveyor,added,surveyed,latitude,longitude
Union Market,404 7th Ave,Brooklyn,NY,11215,Park Slope,6,,large,midsized market,False,False,False,False,True,,False,False,False,False,False,False,,False,True,True,False,True,False,,False,,Jeff Heehs,2010-07-20 13:18:11,2010-07-20 00:00:00,40.664745,-73.983696
Tofu Food Market,550 4th Ave,Brooklyn,NY,11215,Park Slope,6,,large,midsized market,False,False,False,False,False,,False,False,False,False,False,False,,False,False,False,False,False,False,,False,,Jeff Heehs,2010-07-20 13:33:43,2010-07-14 00:00:00,40.666761,-73.992047
Steve's C-Town,329 9th St,Brooklyn,NY,11215,Park Slope,6,,large,supermarket,False,False,False,False,True,,False,False,False,False,False,False,,False,False,True,False,True,False,,False,,Jeff Heehs,2010-08-12 20:11:56,2010-07-20 00:00:00,40.6688511,-73.9855804
Associated Market,212 5th Ave,Brooklyn,NY,11215,Park Slope,6,,large,supermarket,False,False,False,False,True,False,False,False,False,True,False,False,False,False,True,True,False,True,False,False,False,,Pat Konecky,2010-08-12 20:31:07,2010-08-10 00:00:00,40.676245,-73.980905
Met Food,185 7th Ave,Brooklyn,NY,11215,Park Slope,6,,large,midsized market,False,False,False,False,False,,False,False,False,False,False,False,,False,False,False,False,False,False,,False,,Pat Konecky,2010-08-12 20:35:30,2010-08-10 00:00:00,40.671158,-73.977668
Backto the Land,142 7th Ave,Brooklyn,NY,11215,Park Slope,6,,large,midsized market,False,False,False,False,False,,False,False,False,True,False,False,,False,True,True,False,True,False,,False,,Pat Konecky,2010-08-12 20:55:04,2010-08-10 00:00:00,40.672837,-73.976982
Key Food,130 7th Ave,Brooklyn,NY,11215,Park Slope,6,,large,supermarket,False,False,False,False,False,False,False,False,False,True,False,False,False,False,False,True,False,True,False,False,False,,Pat Konecky,2010-08-12 21:00:29,2010-08-10 00:00:00,40.673134,-73.976827
Smart 'n Healthy Market,409 5th Ave,Brooklyn,NY,11215,Park Slope,6,,large,midsized market,False,False,False,False,False,,False,False,False,True,False,False,,False,False,True,False,False,False,,False,,Pat Konecky,2010-08-12 21:14:00,2010-07-08 00:00:00,40.6701615,-73.9854574
Trader Joe's,130 Court St,Brooklyn,NY,11201,Cobble Hill,6,,large,supermarket,False,False,False,False,False,,False,False,False,False,False,False,,False,False,True,False,True,False,,False,,Jeff Heehs,2010-08-13 06:57:05,2010-08-12 00:00:00,40.6893737,-73.9925427
Good Food Super Market,431 Court St,Brooklyn,NY,11231,Carroll Gardens,6,,large,supermarket,False,False,False,False,False,,False,False,False,True,False,False,,False,False,True,False,True,False,,False,,Fiver Childrens' Foundation,2010-08-14 22:12:49,2010-07-28 00:00:00,40.6782899,-73.997527
Gourmet Fresh,437 Court St,Brooklyn,NY,11231,Carroll Gardens,6,,large,midsized market,False,False,False,False,False,,False,False,False,True,False,False,,False,True,True,False,True,False,,False,,Fiver Childrens' Foundation,2010-08-14 22:16:34,2010-07-28 00:00:00,40.67826,-73.9978518
Supermarket Independent Group,2222 Pitkin Ave,Brooklyn,NY,11207,East New York,5,,large,midsized market,False,False,False,False,False,,False,False,False,False,False,False,,False,False,False,False,False,False,,False,,ENY Farms,2010-08-20 21:01:03,2010-08-16 00:00:00,40.672436,-73.8904419
Junior's Food Outlets,464 New Lots Ave,Brooklyn,NY,11207,East New York,5,,large,supermarket,False,False,False,False,False,,False,False,False,False,False,False,,False,False,True,False,False,False,,False,,ENY Farms,2010-08-20 21:31:24,2010-07-15 00:00:00,40.662901,-73.890078
Associated Market,602 Livonia Ave,Brooklyn,NY,11207,East New York,5,,large,supermarket,False,False,False,False,False,,False,False,False,False,False,False,,False,False,True,False,False,False,,False,,ENY Farms,2010-08-20 21:33:30,2010-07-15 00:00:00,40.664587,-73.8949792
Associated Market,773 New Lots Ave,Brooklyn,NY,11208,East New York,5,,large,midsized market,False,False,False,False,False,,False,False,False,False,False,False,,False,False,False,False,False,False,,False,,ENY Farms,2010-08-20 21:39:21,2010-07-15 00:00:00,40.666868,-73.8820099
C Town Supermarket,1176 Liberty Ave,Brooklyn,NY,11208,East New York,5,,large,supermarket,False,False,False,False,False,,False,False,False,False,False,False,,False,False,True,False,False,False,,False,,ENY Farms,2010-08-21 06:48:17,2010-07-16 00:00:00,40.6788067,-73.8656703
Compare Supermarket,416 Crescent St,Brooklyn,NY,11208,East New York,5,,large,supermarket,False,False,False,False,False,,False,False,False,False,False,False,,False,False,True,False,False,False,,False,,ENY Farms,2010-08-21 06:50:33,2010-07-16 00:00:00,40.6785546,-73.8707943
Pioneer Supermarket,1115 Pennsylvania Ave,Brooklyn,NY,11207,East New York,5,,large,supermarket,False,False,False,False,False,,False,False,False,False,False,False,,False,False,False,False,False,False,,False,,ENY Farms,2010-08-22 06:49:35,2010-07-23 00:00:00,40.6531808,-73.886512
Pioneer Supermarket,925 Crescent St,Brooklyn,NY,11208,East New York,5,,large,supermarket,False,False,False,False,False,,False,False,False,False,False,False,,False,False,False,False,False,False,,False,,Jeff Heehs,2010-08-22 14:50:14,2010-08-22 00:00:00,40.6647244,-73.8673204
Key Food,367 Nostrand Ave,Brooklyn,NY,11216,Bed-Stuy,3,,large,supermarket,False,False,False,False,False,,False,False,False,False,False,False,,False,False,False,False,False,False,,False,,Divas,2010-08-22 15:14:18,2010-08-03 00:00:00,40.6855104,-73.950575
Pepper Mill Market,355 7th Ave,Brooklyn,NY,11215,Park Slope,6,,small,green grocer,True,True,True,True,False,,True,True,True,False,True,True,,True,False,False,True,True,True,,True,,Jeff Heehs,2010-07-20 13:12:38,2010-07-20 00:00:00,40.6659409,-73.982035
Village Market,368 7th Ave,Brooklyn,NY,11215,Park Slope,6,,small,green grocer,True,True,True,True,False,,True,True,True,False,True,True,,True,False,False,True,True,True,,True,,Jeff Heehs,2010-07-20 13:14:49,2010-07-20 00:00:00,40.665898,-73.982753
396 Park Slope Deli Grocery,396 7th Ave,Brooklyn,NY,11215,Park Slope,6,,small,bodega,False,False,True,True,False,,False,False,False,False,False,False,,True,False,False,False,False,False,,False,,Jeff Heehs,2010-07-20 13:17:10,2010-07-20 00:00:00,40.6648956,-73.9832759
La Dolce Vita,423 7th Ave,Brooklyn,NY,11215,Park Slope,6,,small,bodega,True,True,True,True,False,,True,True,False,False,False,True,,True,False,False,True,True,False,,True,,Jeff Heehs,2010-07-20 13:19:28,2010-07-20 00:00:00,40.663668,-73.983932
Royal Deli,1501 8th Ave,Brooklyn,NY,11215,Park Slope,6,,small,bodega,False,False,True,True,False,,False,False,False,False,False,False,,True,False,False,True,False,False,,False,,Jeff Heehs,2010-07-20 13:21:48,2010-07-20 00:00:00,40.6621281,-73.9822196
Nida's Royal Supermarket,1419 8th Ave,Brooklyn,NY,11215,Park Slope,6,,small,bodega,False,False,True,True,False,,False,False,False,False,False,False,,False,False,False,False,False,False,,False,,Jeff Heehs,2010-07-20 13:22:45,2010-07-20 00:00:00,40.6622259,-73.981912
12th St. Market,1201 8th Ave,Brooklyn,NY,11215,Park Slope,6,,small,bodega,True,True,True,True,False,,True,True,True,False,True,True,,True,False,False,True,True,True,,True,,Jeff Heehs,2010-07-20 13:23:44,2010-07-20 00:00:00,40.663716,-73.980562
Junior's Deli,1102 8th Ave,Brooklyn,NY,11215,Park Slope,6,,small,bodega,False,False,True,True,False,,False,False,False,False,False,False,,True,False,False,False,False,False,,False,,Jeff Heehs,2010-07-20 13:24:33,2010-07-20 00:00:00,40.6644803,-73.9803048
11th St. Deli Market,1021 8th Ave,Brooklyn,NY,11215,Park Slope,6,,small,bodega,False,False,True,True,False,,False,False,False,False,False,False,,True,False,False,False,False,False,,False,,Jeff Heehs,2010-07-20 13:25:13,2010-07-20 00:00:00,40.664516,-73.979884
CVS,341 9th St,Brooklyn,NY,11215,Park Slope,6,,small,convenience store,False,False,True,True,False,,False,False,False,False,False,False,,False,False,False,False,False,False,,False,,Jeff Heehs,2010-07-20 13:28:39,2010-07-14 00:00:00,40.6687166,-73.9849586
H&D Deli Grocery,463 4th Ave,Brooklyn,NY,11215,Park Slope,6,,small,bodega,True,True,True,True,False,,False,False,False,False,False,False,,True,False,False,True,False,False,,False,,Jeff Heehs,2010-07-20 13:29:48,2010-07-14 00:00:00,40.6693013,-73.9894447
Gourmet Food Market,467 4th Ave,Brooklyn,NY,11215,Park Slope,6,,small,bodega,True,True,True,True,False,,False,False,False,False,False,False,,True,False,False,True,False,False,,False,,Jeff Heehs,2010-07-20 13:30:55,2010-07-14 00:00:00,40.6691351,-73.9895844
Tony's Superior Market,514 4th Ave,Brooklyn,NY,11215,Park Slope,6,,small,bodega,True,True,True,True,False,,True,True,False,False,False,False,,True,False,False,False,False,False,,False,,Jeff Heehs,2010-07-20 13:31:57,2010-07-14 00:00:00,40.667988,-73.991104
Reyes Deli,532 4th Ave,Brooklyn,NY,11215,Park Slope,6,,small,bodega,False,False,True,True,False,,True,True,False,False,False,False,,True,False,False,False,False,False,,True,,Jeff Heehs,2010-07-20 13:32:43,2010-07-14 00:00:00,40.667313,-73.991621
Park Slope Gourmet Deli,555 5th Ave,Brooklyn,NY,11215,Park Slope,6,,small,bodega,True,True,True,True,False,,True,True,False,False,False,True,,True,False,False,False,True,False,,False,,Jeff Heehs,2010-07-20 13:34:47,2010-07-14 00:00:00,40.665576,-73.988887
7-Eleven,520 5th Ave,Brooklyn,NY,11215,Park Slope,6,,small,convenience store,False,False,True,True,False,,False,False,False,False,False,True,,False,False,False,False,False,True,,False,,Jeff Heehs,2010-07-20 13:35:50,2010-07-14 00:00:00,40.666739,-73.988685
My Favorite Deli,513 5th Ave,Brooklyn,NY,11215,Park Slope,6,,small,bodega,False,False,True,True,False,,False,False,False,False,False,False,,True,False,False,False,False,False,,False,,Jeff Heehs,2010-07-20 13:36:42,2010-07-14 00:00:00,40.666753,-73.9879629
Rite Aid,470 5th Ave,Brooklyn,NY,11215,Park Slope,6,,small,convenience store,False,False,True,True,False,,False,False,False,False,False,False,,False,False,False,False,False,False,,False,,Jeff Heehs,2010-07-20 13:37:34,2010-07-14 00:00:00,40.668293,-73.9870593
Estevez Deli Grocery,461 6th Ave,Brooklyn,NY,11215,Park Slope,6,,small,bodega,False,False,True,True,False,False,False,False,False,False,False,False,False,False,False,False,False,False,False,False,False,,Jeff Heehs,2010-07-20 13:38:39,2010-07-14 00:00:00,40.667194,-73.984231
Stop & 5th Deli,357 5th Ave,Brooklyn,NY,11215,Park Slope,6,,small,bodega,True,True,True,True,False,,False,False,False,False,False,True,,False,False,False,False,False,False,,False,,Pat Konecky,2010-08-12 20:20:49,2010-07-08 00:00:00,40.671566,-73.983941
Bagel World,339 5th Ave,Brooklyn,NY,11215,Park Slope,6,,small,bodega,True,True,True,True,False,,False,False,False,False,False,True,,True,False,False,False,False,True,,False,,Pat Konecky,2010-08-12 20:22:11,2010-07-08 00:00:00,40.671985,-73.983611
5th Avenue Gourmet Delight,270 5th Ave,Brooklyn,NY,11215,Park Slope,6,,small,green grocer,True,True,True,True,False,,True,True,True,False,True,True,,True,False,False,True,True,True,,True,,Pat Konecky,2010-08-12 20:26:10,2010-08-10 00:00:00,40.6746089,-73.982135
Ami's Deli Grocery,210 4th Ave,Brooklyn,NY,11215,Park Slope,6,,small,bodega,False,False,False,False,False,,False,False,False,False,False,True,,True,False,False,False,False,True,,False,,Pat Konecky,2010-08-12 20:28:51,2010-08-10 00:00:00,40.6776658,-73.9829878
Around the Clock Deli & Grocery,215 4th Ave,Brooklyn,NY,11215,Park Slope,6,,small,bodega,True,True,False,False,False,,True,True,False,False,False,True,,True,False,False,False,False,True,,False,,Pat Konecky,2010-08-12 20:30:10,2010-08-10 00:00:00,40.677162,-73.982899
Natural Grocery,252 5th Ave,Brooklyn,NY,11215,Park Slope,6,,small,green grocer,False,False,True,True,False,,True,True,True,False,False,True,,False,False,False,True,True,True,,True,,Pat Konecky,2010-08-12 20:33:28,2010-08-10 00:00:00,40.675134,-73.9816869
Park Slope Deli & Tobacco,168 7th Ave,Brooklyn,NY,11215,Park Slope,6,,small,bodega,False,False,False,False,False,False,False,False,False,False,False,True,False,True,False,False,False,False,True,False,False,,Pat Konecky,2010-08-12 20:51:44,2010-08-10 00:00:00,40.671989,-73.977689
Garfield Farm Market,156 7th Ave,Brooklyn,NY,11215,Park Slope,6,,small,green grocer,True,True,True,True,False,,True,True,True,False,True,True,,True,False,False,False,True,True,,True,,Pat Konecky,2010-08-12 20:52:51,2010-08-10 00:00:00,40.672363,-73.977423
DNY Natural Land II,147 7th Ave,Brooklyn,NY,11215,Park Slope,6,,small,green grocer,True,True,True,True,False,,True,True,True,False,True,True,,False,False,False,False,True,True,,True,,Pat Konecky,2010-08-12 20:57:29,2010-08-10 00:00:00,40.6725629,-73.97648
3rd St. Newsstand & Deli,206 7th Ave.,Brooklyn,NY,11215,Park Slope,6,,small,bodega,True,True,True,True,False,,False,False,False,False,False,True,,True,False,False,False,False,True,,False,,Pat Konecky,2010-08-12 21:01:52,2010-08-10 00:00:00,,
Rite Aid,249 7th Ave,Brooklyn,NY,11215,Park Slope,6,,small,convenience store,False,False,True,True,False,False,False,False,False,False,False,True,False,False,False,False,False,False,False,False,False,,Pat Konecky,2010-08-12 21:07:41,2010-07-08 00:00:00,40.6691352,-73.9795661
Park Slope Deli Farm,294 7th Ave,Brooklyn,NY,11215,Park Slope,6,,small,bodega,False,False,True,True,False,,False,False,False,False,False,True,,True,False,False,False,False,True,,False,,Pat Konecky,2010-08-12 21:08:39,2010-07-08 00:00:00,40.668116,-73.980895
The Avenue Deli,305 7th Ave,Brooklyn,NY,11215,Park Slope,6,,small,bodega,False,True,False,True,False,,False,False,False,False,False,True,,True,False,False,False,False,True,,False,,Pat Konecky,2010-08-12 21:09:44,2010-07-08 00:00:00,40.6675576,-73.9809929
Kim's Family Farm,434 5th Ave,Brooklyn,NY,11215,Park Slope,6,,small,green grocer,False,True,False,True,False,,True,True,True,False,True,False,,False,False,False,True,False,True,,True,,Pat Konecky,2010-08-12 21:11:00,2010-07-08 00:00:00,40.669619,-73.9862179
Kim's Grocery,313 7th Ave,Brooklyn,NY,11215,Park Slope,6,,small,green grocer,True,True,True,True,False,,True,True,True,False,False,False,,False,False,False,True,False,True,,True,,Pat Konecky,2010-08-12 21:11:51,2010-07-08 00:00:00,40.667172,-73.980983
Salem Deli Grocery,402 5th Ave,Brooklyn,NY,11215,Park Slope,6,,small,bodega,True,True,True,True,False,,False,False,False,False,False,False,,True,False,False,False,False,True,,False,,Pat Konecky,2010-08-12 21:14:57,2010-07-08 00:00:00,40.670604,-73.985435
Smith Deli Grocery,301 Smith St,Brooklyn,NY,11231,Carroll Gardens,6,,small,bodega,True,True,True,True,False,,True,True,False,False,False,True,,False,False,False,False,True,True,,False,,"Vinita Atkins, Sarah Salgado, Jessica Toledo",2010-08-14 21:20:33,2010-07-27 00:00:00,40.681661,-73.993537
Smith Finest Deli,285 Smith St,Brooklyn,NY,11231,Cobble HIll,6,,small,bodega,False,False,True,True,False,,True,True,False,False,False,True,,True,False,False,False,False,True,,True,,"Vinita Atkins, Sarah Salgado, Jessica Toledo",2010-08-14 21:26:39,2010-07-27 00:00:00,40.6820499,-73.993246
Smith's Grocery,147 Smith St,Brooklyn,NY,11201,Cobble Hill,6,,small,bodega,True,True,True,True,False,,True,True,True,False,False,True,,False,False,False,False,True,False,,True,,Jessyca,2010-08-14 21:28:17,2010-07-27 00:00:00,40.686797,-73.99034
Nut Box,163 Smith St,Brooklyn,NY,11201,Cobble Hill,6,,small,convenience store,False,True,False,False,False,,True,True,False,False,True,False,,False,False,False,False,True,False,,True,,Joshua Taveras,2010-08-14 21:33:19,2010-07-27 00:00:00,40.686123,-73.9906
Elberih Deli Corp,196 Bergen St,Brooklyn,NY,11217,Boerum Hill,6,,small,bodega,True,False,True,True,False,,True,False,True,False,False,False,,False,False,False,True,False,True,,False,,Chantel R,2010-08-14 21:37:56,2010-07-27 00:00:00,40.684767,-73.986143
Food Market,164 Wyckoff St,Brooklyn,NY,11217,Boerum Hill,6,,small,bodega,True,True,True,True,False,False,True,False,True,False,False,False,False,True,False,False,True,False,False,False,True,,Rosa,2010-08-14 21:41:27,2010-07-27 00:00:00,40.6847685,-73.9875829
Smith Organic Market,147 Smith St,Brooklyn,NY,11201,Cobble Hill,6,,small,bodega,True,False,True,True,False,,True,True,True,False,True,False,,True,False,False,True,True,True,,True,,Chantel R,2010-08-14 21:47:03,2010-07-27 00:00:00,40.686797,-73.99034
Hoyt Grocery,182 Hoyt St,Brooklyn,NY,11217,Boerum Hill,,,small,bodega,False,False,True,False,False,,False,False,False,False,False,False,,True,False,False,False,False,True,,False,,C,2010-08-14 21:48:37,2010-07-27 00:00:00,40.6846991,-73.9891709
Mobil Mart,375 Hamilton Ave,Brooklyn,NY,11231,Carroll Gardens,6,,small,convenience store,False,False,True,True,False,,False,False,False,False,False,True,,False,False,False,False,False,True,,False,,Vinita Atkins,2010-08-14 21:51:31,2010-07-28 00:00:00,40.673106,-73.998926
Healthy Deli,556 Garnet Street,Brooklyn,NY,,Carroll Gardens,6,,small,bodega,True,False,True,False,False,,False,False,False,False,False,True,,True,False,False,False,False,True,,False,,unknown,2010-08-14 21:53:14,2010-07-28 00:00:00,,
Sunoco/Dunkin Donuts,289 Smith St,Brooklyn,NY,11231,Carroll Gardens,6,,small,convenience store,False,False,True,False,False,,False,False,False,False,False,True,,False,False,False,False,False,True,,False,,Vinita Atkins,2010-08-14 21:54:13,2010-07-28 00:00:00,40.681949,-73.993312
BP Shop,327 Hamilton Ave,Brooklyn,NY,11231,Carroll Gardens,6,,small,convenience store,False,False,True,True,False,,False,False,False,False,False,True,,False,False,False,False,False,True,,False,,Vinita Atkins,2010-08-14 21:57:54,2010-07-28 00:00:00,40.675028,-74.000232
Las Americas Deli Grocery,506 Court St,Brooklyn,NY,11231,Carroll Gardens,6,,small,bodega,True,True,True,True,False,,True,True,False,False,False,True,,True,False,False,True,True,True,,True,,Fiver Childrens' Foundation,2010-08-14 21:59:33,2010-07-28 00:00:00,40.676653,-73.9989219
Smith & 9th Street Deli Grocery,35 9th St,Brooklyn,NY,11215,Carroll Gardens,6,,small,bodega,True,True,True,True,False,,True,True,True,False,False,True,,True,False,False,True,False,True,,False,,Fiver Childrens' Foundation,2010-08-14 22:01:14,2010-07-28 00:00:00,40.6746473,-73.9975422
Healthy Deli,556 Court St,Brooklyn,NY,11231,Carroll Gardens,6,,small,bodega,False,False,False,False,False,,False,False,False,False,False,True,,True,False,False,False,True,True,,False,,Fiver Childrens' Foundation,2010-08-14 22:03:19,2010-07-28 00:00:00,40.674847,-73.999517
Santos Farm,429 Court St,Brooklyn,NY,11231,Carroll Gardens,6,,small,bodega,False,False,True,False,False,,True,True,True,False,True,True,,False,False,False,True,True,True,,True,,Fiver Childrens' Foundation,2010-08-14 22:10:30,2010-07-28 00:00:00,40.678341,-73.997502
Clinton Market,507 Clinton St,Brooklyn,NY,11231,Carroll Gardens,6,,small,bodega,True,True,True,True,False,,True,True,False,False,False,True,,True,False,False,False,True,False,,True,,Fiver Childrens' Foundation,2010-08-14 22:19:03,2010-07-28 00:00:00,40.678471,-73.99969
Altagracia Grocery,518 3rd Ave,Brooklyn,NY,11215,Gowanus,6,,small,bodega,False,False,True,True,False,,False,False,False,False,False,True,,True,False,False,False,False,False,,False,,Fiver Childrens' Foundation,2010-08-14 22:20:32,2010-08-03 00:00:00,40.669859,-73.992669
Deli and Cafe,536 3rd Ave,Brooklyn,NY,11215,Gowanus,6,,small,bodega,False,False,False,False,False,,False,False,False,False,False,False,,True,False,False,False,False,False,,False,,Fiver Childrens' Foundation,2010-08-14 22:23:03,2010-08-03 00:00:00,40.669266,-73.993155
Deli & Grocery,458 3rd Ave,Brooklyn,NY,11215,Gowanus,6,,small,bodega,False,False,True,True,False,,False,False,False,False,False,True,,True,False,False,False,True,False,,False,,Fiver Childrens' Foundation,2010-08-14 22:25:58,2010-08-03 00:00:00,40.67172,-73.991133
Ziad's Deli,143 Smith St,Brooklyn,NY,11201,Cobble Hill,6,,small,bodega,True,True,True,True,False,,False,False,False,False,False,True,,True,False,False,False,False,True,,False,,Fiver Childrens' Foundation,2010-08-14 22:27:30,2010-08-05 00:00:00,40.686834,-73.990077
Smith Grocery,147 Smith St,Brooklyn,NY,11201,Cobble Hill,6,,small,bodega,True,True,True,True,False,,True,True,False,False,True,True,,True,False,False,True,True,True,,True,,Fiver Childrens' Foundation,2010-08-14 22:28:35,2010-08-05 00:00:00,40.686797,-73.99034
Mun's Gourmet,170 Court St,Brooklyn,NY,11201,Cobble Hill,6,,small,bodega,False,False,True,True,False,,True,True,False,False,False,True,,True,False,False,False,True,True,,True,,Fiver Childrens' Foundation,2010-08-14 22:31:31,2010-08-05 00:00:00,40.688101,-73.993467
Jim & Andy Fruit and Produce Market,208 Warren St,Brooklyn,NY,11201,Cobble Hill,6,,small,green grocer,False,True,False,False,False,,False,True,False,False,True,False,,False,False,False,False,False,False,,True,,Fiver Childrens' Foundation,2010-08-14 22:32:58,2010-08-05 00:00:00,40.6874794,-73.9960308
Unknown,532 3rd Ave,Brooklyn,NY,11215,Gowanus,6,,small,bodega,True,False,False,False,False,,False,False,False,False,False,True,,True,False,False,False,False,False,,False,,Fiver Childrens' Foundation,2010-08-14 22:38:06,2010-08-05 00:00:00,40.669413,-73.993089
3rd Avenue Deli Grocery,454 3rd Ave,Brooklyn,NY,11215,Gowanus,6,,small,bodega,True,False,False,False,False,,False,False,False,False,False,False,,False,False,False,False,False,False,,False,,Fiver Childrens' Foundation,2010-08-14 22:38:58,2010-08-05 00:00:00,40.671814,-73.991054
Firo Grocery,121 3rd Ave,Brooklyn,NY,11217,Boerum Hill,2,,small,bodega,False,False,True,True,False,,False,False,False,False,False,True,,True,False,False,False,False,True,,False,,Fiver Childrens' Foundation,2010-08-14 22:40:10,2010-08-05 00:00:00,40.6826493,-73.9823831
Firo Grocery,121 3rd Ave,Brooklyn,NY,11217,Boerum Hill,2,,small,bodega,False,False,True,True,False,,False,False,False,False,False,True,,True,False,False,False,False,True,,False,,Fiver Childrens' Foundation,2010-08-14 22:40:18,2010-08-05 00:00:00,40.6826493,-73.9823831
Baltic & Bond Deli Grocery,207 Bond St,Brooklyn,NY,11217,Boerum Hill,6,,small,bodega,False,False,False,False,False,,False,False,False,False,False,False,,True,False,False,False,False,False,,False,,Fiver Childrens' Foundation,2010-08-14 22:41:02,2010-08-05 00:00:00,40.68294,-73.987315
Los Primos,522 Linwood St,Brooklyn,NY,11208,East New York,5,,small,bodega,True,False,True,False,False,,False,False,False,False,False,False,,False,False,False,True,False,True,,False,,ENY Farms,2010-08-20 20:37:47,2010-08-06 00:00:00,40.672443,-73.882456
Liberty Apple Farm,1173 Liberty Ave,Brooklyn,NY,11208,East New York,5,,small,green grocer,True,True,True,True,False,,True,True,True,False,False,False,,False,False,False,False,False,True,,True,,ENY Farms,2010-08-20 20:44:12,2010-08-13 00:00:00,40.679047,-73.8660979
Rhe's Food Market,1119 Liberty Ave,Brooklyn,NY,11208,East New York,5,,small,green grocer,False,False,False,False,False,,True,True,True,False,False,True,,False,False,False,False,False,False,,True,,ENY Farms,2010-08-20 20:46:13,2010-08-13 00:00:00,40.678744,-73.86823
Quezada Deli Grocery,568 Van Siclen Ave,Brooklyn,NY,11207,East New York,5,,small,bodega,True,True,True,True,False,,True,True,False,False,False,True,,True,False,False,True,False,False,,True,,ENY Farms,2010-08-20 20:50:26,2010-08-06 00:00:00,40.6657377,-73.8885551
Guajaca Food Corp.,512 Van Siclen Ave,Brooklyn,NY,11207,East New York,5,,small,bodega,True,True,True,True,False,,False,False,False,False,False,False,,True,False,False,False,False,False,,False,,ENY Farms,2010-08-20 20:58:41,2010-08-06 00:00:00,40.6670917,-73.8889016
Family Grocery Deli,2885 Atlantic Ave,Brooklyn,NY,11207,East New York,5,,small,bodega,True,False,True,False,False,,False,False,False,False,False,False,,True,False,False,True,False,False,,False,,ENY Farms,2010-08-20 21:07:50,2010-08-06 00:00:00,40.6772687,-73.8879862
Pitkin Grocery,2233 Pitkin Ave,Brooklyn,NY,11207,East New York,5,,small,bodega,True,False,True,True,False,,False,False,False,False,False,False,,True,False,False,True,False,True,,False,,ENY Farms,2010-08-20 21:13:21,2010-08-06 00:00:00,40.6730019,-73.8899969
Miguelito Deli and Mini Market,684 Hegeman Ave,Brooklyn,NY,11207,East New York,5,,small,bodega,False,False,True,False,False,,False,False,False,False,False,False,,True,False,False,True,False,False,,False,,ENY Farms,2010-08-20 21:20:25,2010-08-06 00:00:00,40.6619952,-73.8867484
Melissa Meat Market,772 Sutter Ave,Brooklyn,NY,11207,East New York,5,,small,bodega,True,False,True,True,False,,False,False,False,False,False,False,,True,False,False,False,False,False,,False,,ENY Farms,2010-08-20 21:25:40,2010-07-15 00:00:00,40.6700184,-73.8900275
Livonia Grocery,933 Livonia Ave,Brooklyn,NY,11208,East New York,5,,small,bodega,True,True,True,True,False,,True,True,False,False,False,True,,True,False,False,False,False,False,,True,,ENY Farms,2010-08-21 05:44:26,2010-07-15 00:00:00,40.6664799,-73.8825479
Livonia Deli & Grocery,902 Livonia Ave,Brooklyn,NY,11207,East New York,5,,small,bodega,True,True,True,False,False,,False,False,False,False,False,False,,True,False,False,False,False,True,,False,,ENY Farms,2010-08-21 05:46:43,2010-07-15 00:00:00,40.666345,-73.8835324
Sabba Grocery and Candy Store,759 New Lots Ave,Brooklyn,NY,11207,East New York,5,,small,bodega,False,False,True,False,False,,False,False,False,False,False,True,,False,False,False,False,False,False,,False,,ENY Farms,2010-08-21 05:49:10,2010-07-15 00:00:00,40.666114,-73.8833437
516 Deli and Grocery,516 New Lots Ave,Brooklyn,NY,11207,East New York,5,,small,bodega,True,False,True,False,False,,False,False,False,False,False,False,,True,False,False,False,False,True,,False,,ENY Farms,2010-08-21 05:52:48,2010-07-15 00:00:00,40.663407,-73.889007
T&J Grocery,715 Riverdale Ave,Brooklyn,NY,11207,East New York,5,,small,bodega,True,False,True,False,False,,False,False,False,False,False,False,,True,False,False,False,False,True,,False,,ENY Farms,2010-08-21 05:54:34,2010-07-14 00:00:00,40.663896,-73.8892193
Tatan Deli and Grocery,578 Livonia Ave,Brooklyn,NY,11207,East New York,5,,small,bodega,True,True,True,True,False,,False,False,False,False,False,False,,True,False,False,True,False,True,,False,,ENY Farms,2010-08-21 05:58:18,2010-07-15 00:00:00,40.66429,-73.895742
Brooklyn Deli Grocery,504 Pennsylvania Ave,Brooklyn,NY,11207,East New York,5,,small,bodega,True,True,True,True,False,,False,False,False,False,False,False,,True,False,False,True,False,True,,False,,ENY Farms,2010-08-21 06:00:42,2010-07-15 00:00:00,40.664943,-73.894434
Pennsylvania Grocery & Deli,519 Pennsylvania Ave,Brooklyn,NY,11207,East New York,5,,small,bodega,True,True,True,True,False,False,False,False,False,False,False,True,False,True,False,False,True,False,True,False,False,,ENY Farms,2010-08-21 06:01:42,2010-07-15 00:00:00,40.6645677,-73.8939019
Rizi Deli & Grocery,618 Livonia Ave,Brooklyn,NY,11207,East New York,5,,small,bodega,False,False,False,False,False,,False,False,False,False,False,True,,False,False,False,True,False,False,,False,,ENY Farms,2010-08-21 06:03:45,2010-07-15 00:00:00,40.664525,-73.8943819
620 Hot Deli,620 Livonia Ave,Brooklyn,NY,11207,East New York,5,,small,bodega,True,False,True,True,False,,False,False,False,False,False,True,,True,False,False,False,False,True,,False,,ENY Farms,2010-08-21 06:05:26,2010-07-15 00:00:00,40.664539,-73.894293
Vermont Grocery and Deli,662 Livonia Ave,Brooklyn,NY,11207,East New York,5,,small,bodega,True,True,True,False,False,,True,True,False,False,False,True,,True,False,False,False,False,True,,True,,ENY Farms,2010-08-21 06:13:59,2010-07-15 00:00:00,40.664814,-73.892371
A&B Grocery,2675 Pitkin Ave,Brooklyn,NY,11208,East New York,5,,small,bodega,False,False,False,False,False,,False,False,False,False,False,False,,False,False,False,False,False,False,,False,,ENY Farms,2010-08-21 06:18:57,2010-07-16 00:00:00,40.675452,-73.873274
Ovi Deli & Grocery,2676 Pitkin Ave,Brooklyn,NY,11208,East New York,5,,small,bodega,False,False,False,False,False,,False,False,False,False,False,False,,False,False,False,False,False,False,,False,,ENY Farms,2010-08-21 06:20:03,2010-07-15 00:00:00,40.674968,-73.873133
Fernandez Grocery,2740 Pitkin Ave,Brooklyn,NY,11208,East New York,5,,small,bodega,False,False,True,False,False,,False,False,False,False,False,True,,True,False,False,False,False,True,,False,,ENY Farms,2010-08-21 06:22:02,2010-07-16 00:00:00,40.6753742,-73.8710972
Al Amin Grocery,1217 Liberty Ave,Brooklyn,NY,11208,East New York,5,,small,bodega,False,False,False,False,False,,False,False,False,False,False,False,,False,False,False,False,False,False,,False,,ENY Farms,2010-08-21 06:36:15,2010-07-16 00:00:00,40.679249,-73.864587
Liberty Deli grocery,1092 Liberty Ave,Brooklyn,NY,11208,East New York,5,,small,bodega,False,False,False,False,False,,False,False,False,False,False,False,,False,False,False,False,False,False,,False,,ENY Farms,2010-08-21 06:42:21,2010-07-15 00:00:00,40.6783957,-73.8690738
Liberty Apple Farm,1173 Liberty Ave,Brooklyn,NY,11208,East New York,5,,small,green grocer,False,False,False,False,False,,True,True,True,False,False,True,,False,False,False,False,False,False,,True,,ENY Farms,2010-08-21 06:45:18,2010-07-16 00:00:00,40.679047,-73.8660979
Deli Vision,1065 Liberty Ave,Brooklyn,NY,11208,East New York,5,,small,bodega,False,False,False,False,False,,False,False,False,False,False,True,,True,False,False,False,False,True,,False,,ENY Farms,2010-08-22 06:19:15,2010-07-16 00:00:00,40.678508,-73.869859
Hector Grocery,2766 Pitkin Ave,Brooklyn,NY,11208,East New York,5,,small,bodega,False,False,False,False,False,,False,False,False,False,False,False,,False,False,False,False,False,False,,False,,ENY Farms,2010-08-22 06:24:26,2010-07-16 00:00:00,40.675452,-73.869848
Star Deli,2718 Pitkin Ave,Brooklyn,NY,11208,East New York,5,,small,bodega,False,False,False,False,False,,False,False,False,False,False,False,,False,False,False,False,False,False,,False,,ENY Farms,2010-08-22 06:30:08,2010-07-16 00:00:00,40.675181,-73.871679
Hernandez Grocery,2738 Pitkin Ave,Brooklyn,NY,11208,East New York,5,,small,bodega,False,False,False,False,False,,False,False,False,False,False,False,,False,False,False,False,False,False,,False,,ENY Farms,2010-08-22 06:34:40,2010-07-16 00:00:00,40.6754874,-73.8712097
Pitkin Farm,2757 Pitkin Ave,Brooklyn,NY,11208,East New York,5,,small,bodega,False,False,False,False,False,,False,False,False,False,False,False,,False,False,False,False,False,False,,False,,ENY Farms,2010-08-22 06:36:59,2010-07-16 00:00:00,40.675908,-73.8704039
Pennsylvania Meat Market,961 Pennsylvania Ave,Brooklyn,NY,11207,East New York,5,,small,bodega,False,False,False,False,False,,False,False,False,False,False,False,,False,False,False,False,False,False,,False,,ENY Farms,2010-08-22 06:46:27,2010-07-23 00:00:00,40.6544938,-73.8874855
South Slope Mini Mart,502 8th St,Brooklyn,NY,11215,Park Slope,6,,small,bodega,False,False,False,False,False,,False,False,False,False,False,False,,False,False,False,False,False,False,,False,,Pat Konecky,2010-08-22 10:39:54,2010-08-10 00:00:00,40.665984,-73.978506
Angelisa's Food Corp.,279 Tompkins Ave,Brooklyn,NY,11221,Bed-Stuy,3,,small,bodega,False,True,False,True,False,False,False,True,False,False,False,True,False,False,False,False,False,False,False,False,True,,Divas,2010-08-22 14:56:54,2010-07-21 00:00:00,40.688514,-73.9446789
Tompkins Deli and Grocery,264 Tompkins Ave,Brooklyn,NY,11216,Bed-Stuy,3,,small,bodega,False,True,False,False,False,False,False,False,False,False,False,True,False,False,False,False,False,False,False,False,False,,Divas,2010-08-22 14:57:40,2010-07-21 00:00:00,40.6890486,-73.9450678
Amby Food Center,318 Tompkins Ave,Brooklyn,NY,11216,Bed-Stuy,3,,small,bodega,False,True,False,True,False,,False,False,False,False,False,True,,False,False,False,False,False,False,,False,,Divas,2010-08-22 14:59:52,2010-07-21 00:00:00,40.686737,-73.944847
Lopez Supermarket,331 Tompkins Ave,Brooklyn,NY,11221,Bed-Stuy,3,,small,bodega,False,True,False,True,False,,False,True,False,False,True,True,,False,False,False,False,False,False,,True,,Divas,2010-08-22 15:00:46,2010-07-21 00:00:00,40.686677,-73.944414
Tompkins Grocery,340 Tompkins Ave,Brooklyn,NY,11216,Bed-Stuy,3,,small,bodega,False,True,False,False,False,,False,False,False,False,False,False,,False,False,False,False,False,False,,False,,Divas,2010-08-22 15:01:36,2010-07-21 00:00:00,40.68594,-73.944738
Guzman Grocery,385 Tompkins Ave,Brooklyn,NY,11216,Bed-Stuy,3,,small,bodega,False,False,False,False,False,,False,False,False,False,False,True,,False,False,False,False,False,False,,False,,Divas,2010-08-22 15:02:25,2010-07-21 00:00:00,40.6843784,-73.9440982
Ates Food Corp.,307 Tompkins Ave,Brooklyn,NY,11221,Bed-Stuy,3,,small,bodega,False,False,False,False,False,,False,False,False,False,False,False,,False,False,False,False,False,False,,False,,Divas,2010-08-22 15:04:34,2010-07-21 00:00:00,40.68739,-73.944457
Nunez Grocery,263 Nostrand Ave,Brooklyn,NY,11216,Bed-Stuy,3,,small,bodega,False,True,False,False,False,,False,False,False,False,False,True,,False,False,False,False,False,False,,False,,Divas,2010-08-22 15:05:43,2010-08-02 00:00:00,40.689717,-73.951132
Nostrand Deli Grocery,353 Nostrand Ave,Brooklyn,NY,11216,Bed-Stuy,3,,small,bodega,False,True,False,False,False,False,False,False,False,False,False,True,False,False,False,False,False,False,False,False,False,,Divas,2010-08-22 15:06:25,2010-08-02 00:00:00,40.6860725,-73.9506877
Malek Deli and Grocery,388 Nostrand Ave,Brooklyn,NY,11216,Bed-Stuy,3,,small,bodega,False,False,False,True,False,,False,False,False,False,False,False,,False,False,False,False,False,False,,False,,Divas,2010-08-22 15:13:15,2010-08-02 00:00:00,40.6862431,-73.9507694
Gates Deli Grocery,398 Nostrand Ave,Brooklyn,NY,11216,Bed-Stuy,3,,small,bodega,False,False,False,False,False,,False,False,False,False,False,False,,False,False,False,False,False,False,,False,,Divas,2010-08-22 15:17:39,2010-08-02 00:00:00,40.6857773,-73.950676
NQ Supermarket & Deli,331 Nostrand Ave,Brooklyn,NY,11216,Bed-Stuy,3,,small,bodega,False,True,False,True,False,,False,False,False,False,False,True,,False,False,False,False,False,False,,False,,d,2010-08-22 15:20:10,2010-08-02 00:00:00,40.687076,-73.95066
Nunez Grocery,263 Nostrand Ave,Brooklyn,NY,11216,Bed-Stuy,3,,small,bodega,False,False,False,False,False,,False,False,False,False,False,False,,False,False,False,False,False,False,,False,,Divas,2010-08-22 15:25:29,2010-08-02 00:00:00,40.689717,-73.951132
Shameer Food Center,354 Nostrand Ave,Brooklyn,NY,11216,Bed-Stuy,3,,small,bodega,False,False,False,False,False,,False,False,False,False,False,False,,False,False,False,False,False,False,,False,,Divas,2010-08-22 15:29:02,2010-08-02 00:00:00,40.6875471,-73.9510261
Capellan Grocery,299 Nostrand Ave,Brooklyn,NY,11216,Bed-Stuy,3,,small,bodega,False,False,False,False,False,,False,False,False,False,False,True,,False,False,False,False,False,False,,False,,Divas,2010-08-22 15:33:20,2010-08-02 00:00:00,40.6884393,-73.951159
Hot Dominican & American Food,282 Nostrand Ave,Brooklyn,NY,11216,Bed-Stuy,3,,small,bodega,False,False,False,True,False,,False,True,True,False,False,True,,False,False,False,False,False,False,,True,,Divas,2010-08-22 15:38:06,2010-08-02 00:00:00,40.6902418,-73.951564
G Line Deli and Grocery,292 Nostrand Ave,Brooklyn,NY,11216,Bed-Stuy,3,,small,bodega,False,True,False,False,False,False,False,False,False,False,False,False,False,False,False,False,False,False,False,False,False,,Divas,2010-08-22 15:40:03,2010-08-02 00:00:00,40.6898248,-73.95148
KC West Indian Deli,403 Nostrand Ave,Brooklyn,NY,11216,Bed-Stuy,3,,small,bodega,False,False,False,False,False,,False,True,False,False,False,True,,False,False,False,False,False,False,,True,,Divas,2010-08-22 15:48:54,2010-08-02 00:00:00,40.6838561,-73.9502468
Village Mart West Indian Food,310 Nostrand Ave,Brooklyn,NY,11216,Bed-Stuy,3,,small,green grocer,False,False,False,True,False,False,False,True,True,False,False,True,False,False,False,False,False,False,False,False,True,,Divas,2010-08-22 15:53:28,2010-08-02 00:00:00,40.6891669,-73.9513495
Shamsaldeen Food Market,313 Nostrand Ave,Brooklyn,NY,11216,Bed-Stuy,3,,small,bodega,False,True,False,False,False,False,False,False,False,False,False,True,False,False,False,False,False,False,False,False,False,,Divas,2010-08-22 15:54:05,2010-08-02 00:00:00,40.687565,-73.950756
Russo's,363 7th Ave,Brooklyn,NY,11215,Park Slope,6,,specialty,international,False,True,False,False,False,,False,False,False,False,False,False,,False,False,False,False,False,True,,False,,Jeff Heehs,2010-08-12 20:12:46,2010-07-20 00:00:00,40.665761,-73.982204
Grab,438 7th Ave,Brooklyn,NY,11215,Park Slope,6,,specialty,gourmet,False,True,False,False,False,,False,False,False,False,False,False,,False,False,False,False,False,True,,False,,Jeff Heehs,2010-08-12 20:13:32,2010-07-20 00:00:00,40.66354,-73.984745
Pollio,376 5th Ave,Brooklyn,NY,11215,Park Slope,6,,specialty,butcher,False,False,False,False,False,,False,False,False,False,False,False,,False,False,False,False,False,False,,False,,Pat Konecky,2010-08-12 20:18:33,2010-07-08 00:00:00,40.671308,-73.984888
P.S. Coffee Tea & Spices,368 5th Ave,Brooklyn,NY,11215,Park Slope,6,,specialty,coffee tea,False,False,False,False,False,,False,False,False,False,False,False,,False,False,False,False,False,False,,False,,Pat Konecky,2010-08-12 20:19:39,2010-07-08 00:00:00,40.671558,-73.984679
D'Vine Taste,148 7th Ave,Brooklyn,NY,11215,Park Slope,6,,specialty,gourmet,False,True,False,False,False,,False,False,False,False,False,False,,False,False,True,False,True,True,,False,,Pat Konecky,2010-08-12 20:54:05,2010-08-10 00:00:00,40.672699,-73.977096
M&S Prime Meats,312 5th Ave,Brooklyn,NY,11215,Park Slope,6,,specialty,butcher,False,False,False,False,False,,False,False,False,False,False,False,,False,False,True,False,False,False,,False,,Pat Konecky,2010-08-12 21:02:53,2010-08-10 00:00:00,40.6731808,-73.9830969
Ocean Fish Market,203 5th Ave,Brooklyn,NY,11215,Park Slope,6,,specialty,seafood,False,False,False,False,False,,False,False,False,False,False,False,,False,False,False,False,False,False,,False,sushi,Pat Konecky,2010-08-12 21:04:11,2010-07-08 00:00:00,40.6764719,-73.980126
Park Slope Sea Food,217 7th Ave,Brooklyn,NY,11215,Park Slope,6,,specialty,seafood,False,False,False,False,False,,False,False,False,False,False,False,,False,False,False,False,False,False,,False,sushi,Pat Konecky,2010-08-12 21:05:36,2010-07-08 00:00:00,40.670062,-73.978563
Jave Joe's,414 8th St,Brooklyn,NY,11215,Park Slope,6,,specialty,coffee tea,False,False,False,False,False,,False,False,False,False,False,False,,False,False,False,False,False,False,,False,Fair Trade Coffee,Pat Konecky,2010-08-12 21:12:46,2010-07-08 00:00:00,40.6674683,-73.9810448
Brooklyn Bread,384 5th Ave,Brooklyn,NY,11215,Park Slope,6,,specialty,bakery,False,True,False,False,False,,False,False,False,False,False,False,,False,False,False,False,False,True,,False,,Pat Konecky,2010-08-12 21:15:49,2010-07-08 00:00:00,40.6711316,-73.9848878
Provence En Boite,265 Smith St,Brooklyn,NY,11231,Cobble Hill,6,,specialty,bakery,False,True,False,False,False,,False,False,False,False,False,False,,False,False,False,False,False,True,,False,,"Vinita Atkins, Sarah Salgado, Jessica Toledo",2010-08-14 21:24:26,2010-07-27 00:00:00,40.6828691,-73.9930525
Meat Market & Deli,162 Wyckoff St,Brooklyn,NY,11217,Boerum Hill,6,,specialty,butcher,False,True,False,False,False,,False,False,False,False,False,False,,False,True,True,False,False,True,,False,,Rosa D,2010-08-14 21:49:42,2010-07-27 00:00:00,40.6847938,-73.987648
F Line Bagels,476 Smith St,Brooklyn,NY,11231,Carroll Gardens,6,,specialty,bakery,False,True,False,False,False,,False,False,False,False,False,False,,False,False,False,False,False,True,,False,Deli,Vinita Atkins,2010-08-14 21:56:29,2010-07-28 00:00:00,40.674915,-73.997943
Brownstone Bagle and Bread,671 Union St,Brooklyn,NY,11215,Park Slope,6,,specialty,bakery,False,True,False,False,False,,False,False,False,False,False,False,,False,False,False,False,True,True,,False,,Fiver Childrens' Foundation,2010-08-14 22:21:40,2010-08-03 00:00:00,40.6773452,-73.9825009
Pacific Green Gourmet,151 Court St,Brooklyn,NY,11201,Boerum Hill,6,,specialty,gourmet,False,True,False,False,False,,False,False,False,False,False,False,,False,True,True,False,True,True,,False,,Fiver Childrens' Foundation,2010-08-14 22:24:34,2010-08-03 00:00:00,40.688939,-73.992419
Smith Organic Market,149 Smith St,Brooklyn,NY,11201,Cobble Hill,6,,specialty,health,False,True,False,False,False,,False,False,False,False,False,False,,False,False,False,False,True,True,,False,,Fiver Childrens' Foundation,2010-08-14 22:30:32,2010-08-05 00:00:00,40.686518,-73.990435
Staubitz Market,222 Court St,Brooklyn,NY,11201,Cobble Hill,6,,specialty,butcher,False,True,False,False,False,,False,False,False,False,False,False,,False,True,True,False,True,True,,False,,Fiver Childrens' Foundation,2010-08-14 22:33:56,2010-08-05 00:00:00,40.686478,-73.994179
Stinky Bklyn,261 Smith St,Brooklyn,NY,11231,Cobble Hill,6,,specialty,cheese,False,True,False,False,False,,False,False,False,False,False,False,,False,False,True,False,True,True,,False,,Fiver Childrens' Foundation,2010-08-14 22:36:47,2010-08-05 00:00:00,40.682924,-73.9926629
LT Guyana West Indian Market,577 New Lots Ave,Brooklyn,NY,11207,East New York,5,,specialty,international,False,False,False,False,False,,False,False,False,False,False,False,,False,False,False,False,False,False,,False,,eny,2010-08-20 21:29:46,2010-07-15 00:00:00,40.664439,-73.887506
Modern Meats,771 New Lots Ave,Brooklyn,NY,11208,East New York,5,,specialty,butcher,False,True,False,False,False,,False,False,False,False,False,False,,False,False,True,False,False,True,,False,,ENY Farms,2010-08-20 21:40:11,2010-07-15 00:00:00,40.666856,-73.88212
Bangla Supermarket,1211 Liberty Ave,Brooklyn,NY,11208,East New York,5,,specialty,international,False,False,False,False,False,,False,False,False,False,False,False,,False,False,False,False,False,False,,False,,ENY Farms,2010-08-21 06:33:29,2010-07-16 00:00:00,40.679186,-73.864773
Ali Grocery and Halal Market,1206 Liberty Ave,Brooklyn,NY,11208,East New York,5,,specialty,international,False,False,False,False,False,,False,False,False,False,False,False,,False,False,True,False,False,False,,False,,ENY Farms,2010-08-22 06:13:16,2010-07-16 00:00:00,40.678754,-73.86461
Dhaka Grocery and Halal Meat,2755 Pitkin Ave,Brooklyn,NY,11208,East New York,5,,specialty,international,False,False,False,False,False,,False,False,False,False,False,False,,False,False,True,False,False,False,,False,,ENY Farms,2010-08-22 06:25:59,2010-07-16 00:00:00,40.6757135,-73.8704282
Gong's fish Market,951 Pennsylvania Ave,Brooklyn,NY,11207,East New York,5,,specialty,seafood,False,False,False,False,False,,False,False,False,False,False,False,,False,False,False,False,False,False,,False,,ENY Farms,2010-08-22 06:43:44,2010-07-23 00:00:00,40.6548521,-73.8876375
Ocean Fish Market,203 7th Ave,Brooklyn,NY,11215,Park Slope,6,,specialty,seafood,False,False,False,False,False,,False,False,False,False,False,False,,False,False,False,False,False,False,,False,,Jeff Heehs,2010-08-22 11:20:14,2010-08-21 00:00:00,40.670693,-73.978197
Atlantic Gourmet Farm,404 Atlantic Ave,Brooklyn,NY,11217,Boerum Hill,2,,small,green grocer,False,False,False,True,False,,False,True,True,False,True,True,,False,False,False,False,True,False,,True,,Fiver,2010-08-23 14:22:39,2010-07-27 00:00:00,40.686665,-73.98487
Jessie's Atlantic Ave.,402 Bond St,Brooklyn,NY,11231,Boerum Hill,2,,small,bodega,False,True,False,True,False,,False,False,False,False,False,False,,False,False,False,False,False,False,,False,,Fiver,2010-08-23 14:23:35,2010-07-27 00:00:00,40.6771659,-73.9917122
Brooklyn Fare,200 Schermerhorn St,Brooklyn,NY,11217,Boerum Hill,2,,large,midsized market,False,False,False,False,True,,False,False,False,True,False,False,,False,True,True,False,True,False,,False,,Fiver,2010-08-23 14:24:42,2010-07-27 00:00:00,40.688627,-73.985174
Hoyt St. Market & Deli,348 Hoyt St,Brooklyn,NY,11231,Boerum Hill,2,,small,bodega,False,True,False,False,False,,False,False,False,False,False,True,,False,False,False,False,False,False,,False,,Fiver,2010-08-23 14:25:47,2010-07-27 00:00:00,40.679608,-73.992704
Deat St. Market & Deli,303 Dean St,Brooklyn,NY,11217,Boerum Hill,2,,small,bodega,False,True,False,True,False,,False,False,False,False,False,True,,False,False,False,False,False,False,,False,,Fiver,2010-08-23 14:26:38,2010-07-27 00:00:00,40.6841803,-73.9818465
Sebastian Food Market,164 Nevins St,Brooklyn,NY,11217,Boerum Hill,2,,small,bodega,False,True,False,True,False,,False,True,False,False,False,True,,False,False,False,False,False,False,,False,,Fiver,2010-08-23 14:27:32,2010-07-27 00:00:00,40.683679,-73.98453
Warren Deli Grocery,429 Warren St,Brooklyn,NY,11217,Boerum Hill,2,,small,bodega,False,True,False,True,False,,False,False,False,False,False,True,,False,False,False,False,False,False,,True,,Fiver,2010-08-23 14:28:26,2010-07-27 00:00:00,40.683819,-73.986768
Blue Apron Foods,814 Union St,Brooklyn,NY,11215,Park Slope,,,specialty,gourmet,False,True,False,False,False,,False,False,False,False,False,False,,False,False,True,False,True,True,,False,locally sourced foods,katie,2010-08-24 19:52:08,2010-08-05 00:00:00,40.6741389,-73.975316
Union Market,754 Union St,Brooklyn,NY,11217,Park Slope,,,large,supermarket,False,False,False,False,True,,False,False,False,True,False,False,,False,True,True,False,True,False,,False,,katie,2010-08-24 19:53:11,2010-08-05 00:00:00,40.67519,-73.9780032
Samawi Inc (around the clock?),215 4th Ave,Brooklyn,NY,11215,Park Slope,,,small,bodega,False,False,True,True,False,,True,True,False,False,False,True,,True,False,False,False,True,False,,False,fruit and fruit juice are meager offerings...apples and oranges. Tropicana. Organic is milk only,katie,2010-08-24 19:58:05,2010-08-05 00:00:00,40.677162,-73.982899
Ace Supermarket,75 7th Ave,Brooklyn,NY,11217,Park Slope,,,large,supermarket,False,False,False,False,False,,False,False,False,True,False,False,,False,False,False,False,True,False,,False,very little natural/organic food,katie,2010-08-24 19:59:19,2010-08-05 00:00:00,40.6749532,-73.9750081
Y & B Food Market,80 7th Ave,Brooklyn,NY,11217,Park Slope,,,small,bodega,True,True,True,True,False,,True,True,True,False,True,True,,True,False,False,False,True,True,,True,only organic is milk,katie,2010-08-24 20:00:37,2010-08-05 00:00:00,40.675044,-73.975373
Slope Natural Food,61 5th Ave,Brooklyn,NY,11217,Park Slope,,,small,bodega,True,True,True,False,False,,True,True,False,False,False,True,,True,False,False,False,True,False,,False,,katie,2010-08-24 20:01:45,2010-08-08 00:00:00,40.680842,-73.977158
6th Ave Deli,133 6th Ave,Brooklyn,NY,11217,Park Slope,,,small,bodega,False,True,True,True,False,,False,False,False,False,False,True,,True,False,False,False,True,False,,False,"only organic is milk. employee said ""This place ain't clean here.""",katie,2010-08-24 20:03:22,2010-08-08 00:00:00,40.6781113,-73.976028
5th Ave Deli,185 5th Ave,Brooklyn,NY,11217,Park Slope,,,small,bodega,True,True,True,True,False,,True,True,True,False,True,True,,False,False,False,True,True,True,,True,very little whole wheat bread,katie,2010-08-24 20:04:20,2010-08-08 00:00:00,40.677028,-73.979715
Key Food,120 5th Ave,Brooklyn,NY,11217,Park Slope,,,large,supermarket,False,False,False,False,True,,False,False,False,True,False,False,,False,False,True,False,True,False,,False,fresh fish not sustainably farmed,katie,2010-08-24 20:05:53,2010-08-08 00:00:00,40.676049,-73.980968
Degraw Deli Grocery,168 5th Ave,Brooklyn,NY,11217,Park Slope,,,small,bodega,False,False,True,True,False,,False,False,False,False,False,True,,True,False,False,False,False,False,,False,very little low fat milk and 100% juice,katie,2010-08-24 20:07:14,2010-08-08 00:00:00,40.677667,-73.979955
Angie's,97 4th Ave,Brooklyn,NY,11217,Park Slope,,,small,bodega,True,False,False,False,False,,False,False,False,False,False,True,,True,False,False,False,False,True,,False,"juice is OJ, bread is Wonder Bread...",katie,2010-08-24 20:09:16,2010-08-08 00:00:00,40.681171,-73.9800659
Ami's Deli,230 4th Ave,Brooklyn,NY,11215,Park Slope,,,small,bodega,False,False,False,False,False,,False,False,False,False,False,True,,True,False,False,False,False,False,,False,,katie,2010-08-24 20:11:08,2010-08-08 00:00:00,40.6771059,-73.9831655
Park Slope Food Co-Op,782 Union St,Brooklyn,NY,11215,Park Slope,,,large,supermarket,False,False,False,False,True,,False,False,False,True,False,False,,False,True,True,False,True,False,,False,duh.....,katie,2010-08-24 20:12:22,2010-08-08 00:00:00,40.674933,-73.976717
4th Ave Deli Grocery,70 4th Ave,Brooklyn,NY,11217,Park Slope,,,small,bodega,False,False,True,True,False,,False,False,False,False,False,True,,True,False,False,False,True,False,,False,only organic is milk. Juice is tropicana.,katie,2010-08-24 20:13:25,2010-08-08 00:00:00,40.682688,-73.979847
44 Deli,44 4th Ave,Brooklyn,NY,11217,Park Slope,,,small,bodega,False,False,False,False,False,,False,False,False,False,False,True,,False,False,False,False,False,False,,False,tropicana...,katie,2010-08-24 20:14:59,2010-08-08 00:00:00,40.6834599,-73.979296
Slope Natural Plus,77 4th Ave,Brooklyn,NY,11217,Park Slope,,,small,bodega,True,True,True,True,False,,True,True,True,False,True,True,,True,False,False,False,True,True,,True,produce was meager but it was there...,katie,2010-08-24 20:16:12,2010-08-08 00:00:00,40.681807,-73.979683
Jany's Meat Market,199 5th Ave,Brooklyn,NY,11215,Park Slope,,,small,bodega,False,False,False,False,False,,False,False,False,False,False,False,,True,False,False,True,False,False,,False,,katie,2010-08-24 20:16:58,2010-08-08 00:00:00,40.676563,-73.980062
Sam Neighborhood Deli Grocery,974 Fulton St,Brooklyn,NY,11238,Clinton Hill,8,,small,bodega,False,True,False,True,False,False,False,False,False,False,False,True,False,False,False,False,False,False,False,False,False,,Eric,2010-12-08 12:40:18,2010-12-08 00:00:00,40.6821849,-73.961992
Taiz Express,67 Underhill Ave,Brooklyn,NY,11238,Prospect Heights,8,True,small,bodega,False,True,False,True,False,False,False,False,False,False,False,True,False,False,False,False,False,False,False,False,False,,Eric,2011-01-17 11:36:54,2011-01-17 00:00:00,40.6786079,-73.965127
Namaskar,643 Vanderbilt Ave,Brooklyn,NY,11238,Prospect Heights,8,,specialty,health,False,True,False,False,False,False,False,False,False,False,False,False,False,False,False,False,False,True,False,False,False,,Eric,2011-01-17 11:50:33,2011-01-17 00:00:00,40.6778486,-73.9688337
none,358 Flatbush Ave,Brooklyn,NY,11238,Prospect Heights,6,,small,convenience store,False,False,False,False,False,False,False,False,False,False,False,False,False,False,False,False,False,False,False,False,False,,Eric,2011-01-17 12:08:29,2011-01-17 00:00:00,40.6758555,-73.9715229
Bklyn Larder,228 Flatbush Ave,Brooklyn,NY,11217,Park Slope,6,,specialty,gourmet,False,False,False,False,False,False,False,False,False,False,False,False,False,False,False,False,False,True,False,False,False,,Eric,2011-01-17 12:36:16,2011-01-17 00:00:00,40.6805245,-73.9751492
Beny's Delice,903 Fulton St,Brooklyn,NY,11238,Fort Greene,8,,specialty,bakery,False,False,False,False,False,False,False,False,False,False,False,False,False,False,False,False,False,False,False,False,False,,Eric,2011-01-17 13:18:48,2011-01-17 00:00:00,40.6836833,-73.9672662
Yafa Deli & Grocery,907 Fulton St,Brooklyn,NY,11238,Fort Greene,8,,small,bodega,False,False,False,True,False,False,False,False,False,False,False,True,False,False,False,False,False,True,False,False,False,,Eric,2011-01-17 13:24:40,2011-01-17 00:00:00,40.6835051,-73.9669552
Cambridge Super Deli,1001 Fulton St,Brooklyn,NY,11238,Clinton Hill,8,,small,bodega,False,False,False,True,False,False,False,False,False,False,False,True,False,False,False,False,False,True,False,False,False,,Eric,2011-01-17 13:37:20,2011-01-17 00:00:00,40.6829151,-73.9628119
Hyun's Deli,490 Myrtle Ave,Brooklyn,NY,11205,Clinton Hill,2,,small,bodega,False,True,False,True,False,False,False,True,False,False,False,True,False,False,False,False,False,False,False,False,False,,Eric,2011-01-20 14:03:51,2011-01-19 00:00:00,40.693233,-73.965345
Associated,492 Myrtle Ave,Brooklyn,NY,11205,Clinton Hill,2,True,large,supermarket,False,False,False,False,True,False,False,False,False,False,False,False,False,False,False,True,False,True,False,False,False,,Eric,2011-01-20 14:06:31,2011-01-19 00:00:00,40.6933554,-73.9652455
TIJ Fruit Market & Gourmet,497 Myrtle Ave,Brooklyn,NY,11205,Clinton Hill,2,,small,green grocer,False,True,False,True,False,False,False,True,False,False,False,True,False,False,False,False,False,True,False,False,True,,Eric,2011-01-20 14:08:07,2011-01-19 00:00:00,40.6936159,-73.9652352
Al-Marwan Supermarket and Deli,1341 St Johns Pl,Brooklyn,NY,11213,,8,True,small,bodega,False,True,False,True,False,False,False,False,False,False,False,False,False,False,False,False,False,False,False,False,False,,Jacqueline Taylor,2011-01-31 18:26:17,2011-01-17 00:00:00,40.6707443,-73.933768
Fishers Supermarket,791 Franklin Ave,Brooklyn,NY,11238,Crown Heights,8,True,,supermarket,False,False,False,False,False,False,False,False,False,False,False,False,False,False,False,False,False,False,False,False,False,,Ajamu Brown,2011-01-31 18:26:47,2011-01-17 00:00:00,40.6718564,-73.957521
"Full Stop Deli, Grocery, and Candy Store",376 Utica Ave,Brooklyn,NY,11213,Crown Heights,8,True,small,bodega,False,True,False,False,False,False,False,False,False,False,False,True,False,False,False,False,False,False,False,False,False,,Shameka Davis,2011-01-31 18:27:02,2011-01-17 00:00:00,40.665416,-73.931771
Carma Deli Corp,245 Troy Ave,Brooklyn,NY,11213,Crown Heights,8,,small,bodega,False,False,False,False,False,False,False,False,False,False,False,False,False,False,False,False,False,False,False,False,False,,Jacqueline Taylor,2011-01-31 18:27:17,2011-01-17 00:00:00,40.67071,-73.936213
Rodriguez Mini Market,243 St Johns Pl,Brooklyn,NY,11217,,6,True,small,bodega,False,True,False,True,False,False,False,False,False,False,False,False,False,False,False,False,False,False,False,False,False,,Jacqueline Taylor,2011-01-31 18:28:21,2011-01-17 00:00:00,40.6756177,-73.9719658
Pine Tree,744 Franklin Ave,Brooklyn,NY,11238,Crown Heights,8,,small,bodega,False,True,False,True,False,False,False,True,False,False,False,True,False,False,False,False,False,True,False,False,True,,Ajamu Brown,2011-01-31 18:28:22,2011-01-17 00:00:00,40.673013,-73.957391
Grocery Plus (One Stop),188 Utica Ave,Brooklyn,NY,11213,Crown Heights,8,True,small,bodega,False,True,False,True,False,False,False,True,False,False,False,True,False,False,False,False,False,False,False,False,True,,Shameka Davis,2011-01-31 18:29:07,2011-01-17 00:00:00,40.672513,-73.931078
758 Grocery,758 Franklin Ave,Brooklyn,NY,11238,Crown Heights,8,,small,bodega,False,False,False,False,False,False,False,False,False,False,False,False,False,False,False,False,False,False,False,False,False,,Ajamu Brown,2011-01-31 18:29:37,2011-01-17 00:00:00,40.6726762,-73.9573608
King Frank Deli Express,211 Utica Ave,Brooklyn,NY,11213,Crown Heights,8,True,small,bodega,False,False,False,False,False,False,False,False,False,False,False,False,False,False,False,False,False,False,False,False,False,,Shameka Davis,2011-01-31 18:30:20,2011-01-17 00:00:00,40.671638,-73.930577
The Market Place,271 Flatbush Ave,Brooklyn,NY,11217,Prospect Heights,8,True,small,green grocer,False,True,False,True,False,False,False,True,False,False,False,True,False,False,False,False,False,True,False,False,True,,Martha Mi,2011-01-31 18:30:31,2011-01-17 00:00:00,40.6797175,-73.9742704
Food Dynasty,181 Park Pl,Brooklyn,NY,11238,Prospect Heights,8,True,large,supermarket,False,False,False,False,False,False,False,False,False,False,False,False,False,False,False,True,False,True,False,False,False,,Jacqueline Taylor,2011-01-31 18:31:07,2011-01-17 00:00:00,40.6774563,-73.9715779
The Best Deli and Grocery,225 Utica Ave,Brooklyn,NY,11213,Crown Heights,8,True,small,bodega,False,True,False,True,False,False,False,False,False,False,False,True,False,False,False,False,False,False,False,False,False,,Shameka Davis,2011-01-31 18:31:39,2011-01-17 00:00:00,40.671006,-73.930603
Green Country Farm,1420 St Johns Pl,Brooklyn,NY,11213,Crown Heights,8,True,small,green grocer,False,False,False,False,False,False,False,True,False,False,False,False,False,False,False,False,False,False,False,False,True,"fresh brined beef, pork, and fish, good north indian spices",Maureen O'Brien,2011-01-31 18:31:54,2011-01-17 00:00:00,40.6705832,-73.9313201
99cents and Up,260 Utica Ave,Brooklyn,NY,11213,Crown Heights,8,True,small,convenience store,False,True,False,False,False,False,False,False,False,False,False,False,False,False,False,False,False,False,False,False,False,,Shameka Davis,2011-01-31 18:33:06,2011-01-17 00:00:00,40.6697268,-73.9310736
Fine Fare,261 Kingston Ave,Brooklyn,NY,11213,Crown Heights,8,True,large,supermarket,False,False,False,False,False,False,False,False,False,False,False,False,False,False,False,False,False,False,False,False,False,,Keil Troisi,2011-01-31 18:33:26,2010-01-17 00:00:00,40.6707432,-73.9419501
St. John's Fruit and Vegetables West Indian Foods,1426 St Johns Pl,Brooklyn,NY,11213,Crown Heights,8,True,small,green grocer,False,False,False,False,False,False,False,True,False,False,False,False,False,False,False,False,False,False,False,False,True,"Brined beef, pork, and fish. Good West Indian spices. ",Maureen O'Brien,2011-01-31 18:34:19,2011-01-17 00:00:00,40.670377,-73.931257
Kings Pharmacy,357 Flatbush Ave,Brooklyn,NY,11238,Prospect Heights,8,,small,convenience store,False,False,False,False,False,False,False,False,False,False,False,False,False,False,False,False,False,False,False,False,False,,Mara Gittleman,2011-01-31 18:34:24,2011-01-17 00:00:00,40.6769143,-73.9720785
Duane Reade ,302 Brooklyn Ave,Brooklyn,NY,11213,Prospect Heights,8,True,small,convenience store,False,True,False,True,False,False,False,False,False,False,False,True,False,False,False,False,False,False,False,False,False,,Maria Mei,2011-01-31 18:35:10,2011-01-17 00:00:00,40.6688029,-73.945308
99 Cent Dreams,1376 St Johns Pl,Brooklyn,NY,11213,Crown Heights,8,True,small,convenience store,False,False,False,False,False,False,False,False,False,False,False,False,False,False,False,False,False,False,False,False,False,"Lots of beans, pasta and other canned food but no healthy options. ",Maureen O'Brien,2011-01-31 18:35:30,2011-01-17 00:00:00,40.670388,-73.932716
Schenectady Deli & Grocery,255 Schenectady Ave,Brooklyn,NY,11213,Crown Heights,8,,small,bodega,False,False,False,False,False,False,False,False,False,False,False,True,False,False,False,False,False,False,False,False,False,,Keil Troisi,2011-01-31 18:35:42,2010-01-17 00:00:00,40.669804,-73.933519
Fruit and Vegetables West Indian foods,1426 St Johns Pl,Brooklyn,NY,11213,Crown Heights,8,True,small,green grocer,False,False,False,False,False,False,False,True,False,False,False,True,False,False,False,False,False,True,False,False,True,,Shameka Davis,2011-01-31 18:35:47,2011-01-17 00:00:00,40.670377,-73.931257
My Favorite Deli,1531 Bergen St,Brooklyn,NY,11213,Crown Heights,8,True,small,bodega,False,False,False,False,False,False,False,False,False,False,False,False,False,False,False,False,False,False,False,False,False,,Maureen O'Brien,2011-01-31 18:36:10,2011-01-17 00:00:00,40.6751889,-73.9330085
Key Food,369 Flatbush Ave,Brooklyn,NY,11238,Prospect Heights,8,True,large,supermarket,False,False,False,False,True,False,False,False,False,True,False,False,False,False,False,True,False,True,False,False,False,,Mara Gittleman,2011-01-31 18:36:57,2011-01-17 00:00:00,40.676702,-73.971677
Mega 99 cents,555 Nostrand Ave,Brooklyn,NY,11216,Crown Heights,8,True,small,convenience store,False,False,False,False,False,False,False,False,False,False,False,False,False,False,False,False,False,False,False,False,False,,Keisha,2011-01-31 18:37:26,2011-01-17 00:00:00,40.6785253,-73.9496535
Kingston Fruit and Vegetables West,265 Kingston Ave,Brooklyn,NY,11213,Crown Heights,8,True,specialty,international,False,False,False,False,False,False,False,False,False,False,False,False,False,False,False,False,False,True,False,False,False,fresh vegetables,Jacqueline Taylor,2011-01-31 18:37:30,2011-01-17 00:00:00,40.670648,-73.941818
Kingston Fruit and Vegetables West Indian Grocery,265 Kingston Ave,Brooklyn,NY,11213,Crown Heights,8,True,specialty,international,False,False,False,False,False,False,False,False,False,False,False,False,False,False,False,False,False,True,False,False,False,Dried fish and W. Indian specialty vegetables. ,Maureen O'Brien,2011-01-31 18:37:51,2011-01-17 00:00:00,40.670648,-73.941818
Sur's Fish,772 Nostrand Ave,Brooklyn,NY,11216,Crown Heights,8,,small,green grocer,False,False,False,False,False,False,False,False,False,False,False,False,False,False,False,False,False,False,False,False,False,,Ryeneil Booker,2011-01-31 18:38:14,2011-01-17 00:00:00,40.672243,-73.950491
"Triple ""S"" Market West Indian Grocery",822 Nostrand Ave,Brooklyn,NY,11216,Crown Heights,8,,large,midsized market,False,False,False,False,False,False,False,False,False,True,False,False,False,False,False,False,False,True,False,False,False,fruit and vegetables,Jabir Salulei,2011-01-31 18:38:15,2011-01-17 00:00:00,40.6704514,-73.9505426
Pena's Food Market,598 Vanderbilt Ave,Brooklyn,NY,11238,Prospect Heights,8,,small,bodega,False,False,False,True,False,False,False,False,False,False,False,True,False,False,False,False,False,False,False,False,False,,Mara Gittleman,2011-01-31 18:38:25,2011-01-17 00:00:00,40.678468,-73.968917
City Pride Grocery Deli,231 Kingston Ave,Brooklyn,NY,11213,Crown Heights,8,True,small,bodega,False,True,False,False,False,False,False,False,False,False,False,True,False,False,False,False,False,False,False,False,False,,Maureen O'Brien,2011-01-31 18:39:18,2011-01-17 00:00:00,40.67218,-73.941689
273 Kingston Ave Food Coop,273 Kingston Ave,Brooklyn,NY,11213,Crown Heights,8,True,small,bodega,False,True,False,True,False,False,False,False,False,False,False,False,False,False,False,False,False,False,False,False,False,,Jacqueline Taylor,2011-01-31 18:39:38,2011-01-17 00:00:00,40.67042,-73.94184
Prospect Supermarket and Deli,720 Rogers Ave,Brooklyn,NY,11226,Crown Heights,8,True,large,midsized market,False,False,False,False,False,False,False,False,False,False,False,False,False,False,False,False,False,False,False,False,False,,Ryeneil Booker,2011-01-31 18:39:40,2011-01-17 00:00:00,40.6538243,-73.9528294
Health Food Emporium Supermarket,594 Nostrand Ave,Brooklyn,NY,11216,Crown Heights,8,True,specialty,health,False,False,False,False,False,False,False,False,False,False,False,False,False,False,False,False,False,False,False,False,False,,Keisha,2011-01-31 18:39:40,2011-01-17 00:00:00,40.67819,-73.950016
Nostrand Deli,777 Nostrand Ave,Brooklyn,NY,11216,Crown Heights,8,,small,bodega,False,False,False,False,False,False,False,False,False,False,False,False,False,False,False,False,False,False,False,False,False,,Jabir Salulei,2011-01-31 18:39:54,2011-01-17 00:00:00,40.6707336,-73.950386
DNY Natual Land,322 Flatbush Ave,Brooklyn,NY,11238,Crown Height,8,,large,midsized market,False,False,False,False,True,False,False,False,False,True,False,False,False,False,False,False,False,True,False,False,False,,Jacqueline Taylor,2011-01-31 18:40:02,2011-01-17 00:00:00,40.6770505,-73.9725755
Hill Crest Grocery,598 Nostrand Ave,Brooklyn,NY,11216,Crown Heights,8,True,small,bodega,False,False,False,True,False,False,False,False,False,False,False,False,False,False,False,False,False,False,False,False,False,,Keisha,2011-01-31 18:40:30,2011-01-17 00:00:00,40.6780954,-73.9499159
Superior Market and Deli,81 Kingston Ave,Brooklyn,NY,11213,Crown Heights,8,True,small,bodega,False,True,False,True,False,False,False,True,False,False,False,True,False,False,False,False,False,True,False,False,False,Boar's Head lunch meat,Maureen O'Brien,2011-01-31 18:40:34,2011-01-17 00:00:00,40.6770089,-73.9414597
Mets Food Markets,739 Nostrand Ave,Brooklyn,NY,11216,Crown Heights,8,True,large,supermarket,False,False,False,False,False,False,False,False,False,False,False,False,False,False,False,False,False,False,False,False,False,,Jabir Salulei,2011-01-31 18:40:46,2011-01-17 00:00:00,40.6720466,-73.9501273
225 Kingston Ave Deli and Grocery,265 Kingston Ave,Brooklyn,NY,11213,Crown Heights ,8,True,small,bodega,False,False,False,False,False,False,False,False,False,False,False,False,False,False,False,False,False,False,False,False,False,,Jacqueline Taylor,2011-01-31 18:40:55,2011-01-17 00:00:00,40.670648,-73.941818
West Indian & American Grocery,723 Nostrand Ave,Brooklyn,NY,11216,Crown Heights,8,True,large,midsized market,False,False,False,False,False,False,False,False,False,True,False,False,False,False,False,False,False,True,False,False,False,fresh fruit,Ryeneil Booker,2011-01-31 18:41:23,2011-01-17 00:00:00,40.672568,-73.9502298
Underhill Food Corp,115 Underhill Ave,Brooklyn,NY,11238,Prospect Heights,8,True,small,bodega,False,True,False,True,False,False,False,True,False,False,False,True,False,False,False,False,False,False,False,False,False,,Mara Gittleman,2011-01-31 18:41:52,2011-01-17 00:00:00,40.677276,-73.96559
United Deli,240 Washington Ave,Brooklyn,NY,11205,Crown Heights ,8,True,small,bodega,False,True,False,False,False,False,False,False,False,False,False,False,False,False,False,False,False,False,False,False,True,,Jacqueline Taylor,2011-01-31 18:42:05,2011-01-17 00:00:00,40.691324,-73.966797
R & R Deli - Grocery,108 Albany Ave,Brooklyn,NY,11213,Crown Heights,8,True,small,bodega,False,True,False,False,False,False,False,True,False,False,False,True,False,False,False,False,False,False,False,False,False,,Maureen O'Brien,2011-01-31 18:42:21,2011-01-17 00:00:00,40.6768,-73.938886
Franklin Mini Market,688 Franklin Ave,Brooklyn,NY,11238,Crown Heights,8,,small,bodega,False,True,False,True,False,False,False,False,False,False,False,True,False,False,False,False,False,False,False,False,False,,Caroline Nagy,2011-01-31 18:42:23,2011-01-17 00:00:00,40.674912,-73.956703
A & M Grocery,818 Nostrand Ave,Brooklyn,NY,11216,Crown Heights,8,True,small,bodega,False,False,False,True,False,False,False,False,False,False,False,False,False,False,False,False,False,False,False,False,False,,Jabir Suluci,2011-01-31 18:42:26,2011-01-17 00:00:00,40.6707364,-73.9504328
Deli Grocery,1117 Rogers Ave,Brooklyn,NY,11226,Crown Heights,8,True,small,bodega,False,True,False,True,False,False,False,False,False,False,False,True,False,False,False,False,False,False,False,False,False,,Ryeneil Booker,2011-01-31 18:42:55,2011-01-17 00:00:00,40.642612,-73.951271
Duarte Food Corp,276 Albany Ave,Brooklyn,NY,11213,Crown Height,8,True,small,bodega,False,False,False,False,False,False,False,False,False,False,False,True,False,False,False,False,False,False,False,False,False,,Keil Troisi,2011-01-31 18:43:14,2011-01-17 00:00:00,40.671219,-73.939545
Bergen Express Deli,631 Franklin Ave,Brooklyn,NY,11216,Crown Heights,8,,small,bodega,False,True,False,True,False,False,False,True,False,False,False,True,False,False,False,False,False,False,False,False,False,,Caroline Nagy,2011-01-31 18:43:19,2011-01-17 00:00:00,40.6769202,-73.9556085
B Town Deli Convenience,613 Nostrand Ave,Brooklyn,NY,11216,Crown Heights,8,True,small,bodega,False,False,False,False,False,False,False,False,False,False,False,False,False,False,False,False,False,False,False,False,False,,Keisha,2011-01-31 18:43:19,2011-01-17 00:00:00,40.676218,-73.949671
Triple's Market and Grocery,822 Nostrand Ave,Brooklyn,NY,11216,Crown Heights,8,,large,midsized market,False,False,False,False,False,False,False,False,False,True,False,False,False,False,False,False,False,True,False,False,False,fresh fruit,Ryeneil Booker,2011-01-31 18:44:35,2011-01-17 00:00:00,40.6704514,-73.9505426
Stop-3 Supermarket Deli,176 Albany Ave,Brooklyn,NY,11213,Crown Heights,8,True,small,bodega,False,True,False,True,False,False,False,False,False,False,False,True,False,False,False,False,False,False,False,False,False,,Maureen O'Brien,2011-01-31 18:44:56,2011-01-17 00:00:00,40.6746943,-73.9389062
Brooklyn Victory Garden,920 Fulton St,Brooklyn,NY,11238,Prospect Heights,8,,specialty,gourmet,False,True,False,False,False,False,False,False,False,False,False,False,True,False,True,False,False,True,False,False,False,,Mara Gittleman,2011-01-31 18:45:09,2011-01-17 00:00:00,40.682815,-73.964175
West Indian & American Grocery,784 Nostrand Ave,Brooklyn,NY,11216,Crown Heights,8,True,small,green grocer,False,False,False,False,False,False,False,False,False,False,False,False,False,False,False,False,False,False,False,False,False,sustainably caught fish,Jabir Suluki,2011-01-31 18:45:18,2011-01-17 00:00:00,40.671929,-73.950538
NSA Supermarket,720 Washington Ave,Brooklyn,NY,11238,Crown Heights,8,True,large,supermarket,False,False,False,False,False,False,False,False,False,True,False,False,False,False,False,True,False,True,False,False,False,whole grain breads,Jacqueline Taylor,2011-01-31 18:45:26,2011-01-17 00:00:00,40.676201,-73.963845
Haifa Market,263 Flatbush Ave,Brooklyn,NY,11217,,8,True,small,bodega,False,True,False,True,False,False,False,True,False,False,False,True,False,False,False,False,False,False,False,False,True,,,2011-01-31 18:45:31,2011-01-17 00:00:00,40.6800132,-73.9742504
Lealy Super Deli Grocery Store,790 Nostrand Ave,Brooklyn,NY,11216,Crown Heights,8,True,small,bodega,False,True,False,False,False,False,False,False,False,False,False,False,False,False,False,False,False,False,False,False,False,,Ryeneil Booker,2011-01-31 18:45:57,2011-01-17 00:00:00,40.671769,-73.950554
El Cano Deli Grocery,200 Albany Ave,Brooklyn,NY,11213,Crown Heights,8,True,small,bodega,False,False,False,True,False,False,False,False,False,False,False,True,False,False,False,False,False,False,False,False,False,Super clean,Maureen O'Brien,2011-01-31 18:46:01,2011-01-17 00:00:00,40.6736726,-73.9390881
AB Grocery,99 Schenectady Ave,Brooklyn,NY,11213,Crown Height,8,True,small,bodega,False,False,False,True,False,False,False,False,False,False,False,False,False,False,False,False,False,False,False,False,True,,Keil Troisi,2011-01-31 18:46:10,2011-01-17 00:00:00,40.6758345,-73.9332305
Sam Neighborhood Deli Grocery,974 Fulton St,Brooklyn,NY,11238,Prospect Heights,8,,small,bodega,False,True,False,False,False,False,False,False,False,False,False,True,False,False,False,False,False,False,False,False,False,,Mara Gittleman,2011-01-31 18:46:16,2011-01-17 00:00:00,40.6823607,-73.9619325
US American Deli,637 Nostrand Ave,Brooklyn,NY,11216,Crown Heights,8,True,small,bodega,False,False,False,True,False,False,False,False,False,False,False,False,False,False,False,False,False,False,False,False,False,,Keisha,2011-01-31 18:46:26,2011-01-17 00:00:00,40.675361,-73.9497109
Nam's Green Fruit and Vegetable,769 Franklin Ave,Brooklyn,NY,11238,Crown Heights,8,True,small,green grocer,False,True,False,True,False,False,False,True,False,False,False,False,False,False,False,False,False,True,False,False,True,,Najma Ratcliff,2011-01-31 18:46:56,2011-01-17 00:00:00,40.6724982,-73.9572912
Kumar Deli Corp,252 Albany Ave,Brooklyn,NY,11213,Crown Heights,8,True,small,bodega,False,True,False,False,False,False,False,False,False,False,False,True,False,False,False,False,False,False,False,False,False,,Maureen O'Brien,2011-01-31 18:46:59,2011-01-17 00:00:00,40.672075,-73.939453
Key Food,657 Nostrand Ave,Brooklyn,NY,11216,Crown Heights,8,True,large,supermarket,False,False,False,False,False,False,False,False,False,False,False,False,False,False,False,False,False,True,False,False,False,,Keisha,2011-01-31 18:47:07,2011-01-17 00:00:00,40.6747149,-73.9500219
Prince Deli Grocery,725 Nostrand Ave,Brooklyn,NY,11216,Crown Heights,8,True,small,bodega,False,False,False,False,False,False,False,False,False,False,False,False,False,False,False,False,False,False,False,False,False,,Ryeneil Booker,2011-01-31 18:47:16,2011-01-17 00:00:00,40.6725018,-73.9502358
Radha Grocery Store,788 Franklin Ave,Brooklyn,NY,11238,Crown Heights,8,,small,bodega,False,False,False,False,False,False,False,False,False,False,False,True,False,False,False,False,False,False,False,False,False,,Najma Ratcliff,2011-01-31 18:48:04,2011-01-17 00:00:00,40.6716669,-73.9577288
Mega 99cent,555 Nostrand Ave,Brooklyn,NY,11216,Crown Heights,8,True,small,convenience store,False,False,False,False,False,False,False,False,False,False,False,False,False,False,False,False,False,False,False,False,False,,Heewon Lee,2011-01-31 18:48:45,2011-01-17 00:00:00,40.6785253,-73.9496535
Dominican Grocery Corp.,172 Schenectady Ave,Brooklyn,NY,11213,Crown Height,8,True,small,bodega,False,False,False,False,False,False,False,False,False,False,False,False,False,False,False,False,False,False,False,False,False,,Keil Troisi,2011-01-31 18:48:51,2011-01-17 00:00:00,40.673286,-73.933733
Washington Deli Grocery,912 Washington Ave,Brooklyn,NY,11225,Prospect Heights,9,True,small,bodega,False,True,False,True,False,False,False,False,False,False,False,True,False,False,False,False,False,False,False,False,False,,Mara Gittleman,2011-01-31 18:48:55,2011-01-17 00:00:00,40.6674062,-73.961769
USA Express Deli,738 Nostrand Ave,Brooklyn,NY,11216,Crown Heights,8,True,small,bodega,False,True,False,True,False,False,False,False,False,False,False,False,False,False,False,False,False,False,False,False,False,,USA Express Deli,2011-01-31 18:48:57,2011-01-17 00:00:00,40.673294,-73.950425
Burgos Grocery Store,762 Classon Ave,Brooklyn,NY,11238,,8,,small,bodega,False,True,False,True,False,False,False,False,False,False,False,False,False,False,False,False,False,False,False,False,False,,Najma Ratcliff,2011-01-31 18:48:59,2011-01-17 00:00:00,40.6738349,-73.960735
H & K Fruit Market,1045 Schenectady Ave,Brooklyn,NY,11203,Crown Heights,8,True,small,green grocer,False,True,False,False,False,False,False,True,False,False,False,True,False,False,False,False,False,True,False,False,False,Great spice section,Maureen O'Brien,2011-01-31 18:49:01,2011-01-17 00:00:00,40.6474509,-73.932541
Prospect Supermarket & Deli,720 Rogers Ave,Brooklyn,NY,11226,Crown Heights,8,True,large,midsized market,False,False,False,False,False,False,False,False,False,False,False,False,False,False,False,False,False,False,False,False,False,,Jabir Suluki,2011-01-31 18:50:17,2011-01-17 00:00:00,40.6538243,-73.9528294
Classon Grocery,502 Prospect Pl,Brooklyn,NY,11238,,8,True,small,bodega,False,True,False,True,False,False,False,False,False,False,False,True,False,False,False,False,False,True,False,False,False,,Najma Ratcliff,2011-01-31 18:50:37,2011-01-17 00:00:00,40.6756311,-73.9599391
Green Planet,969 Fulton St,Brooklyn,NY,11238,Crown Heights,8,True,small,green grocer,False,True,False,True,False,False,False,True,False,False,False,True,False,False,False,False,False,True,False,False,True,,Jacqueline King,2011-01-31 18:51:19,2011-01-17 00:00:00,40.6830712,-73.9643855
Brooklyn Deli Grocery,201 Rochester Ave,Brooklyn,NY,11213,Crown Heights,8,True,small,bodega,False,False,False,False,False,False,False,False,False,False,False,True,False,False,False,False,False,False,False,False,False,,Meghan Linick,2011-01-31 18:51:36,2011-01-17 00:00:00,40.67192,-73.927723
American Grocery & Deli,579 Nostrand Ave,Brooklyn,NY,11216,Crown Heights,8,,small,bodega,False,False,False,False,False,False,False,False,False,False,False,True,False,False,False,False,False,False,False,False,False,,Heewon Lee,2011-01-31 18:52:08,2011-01-17 00:00:00,40.6773925,-73.949718
Great American Market,227 Schenectady Ave,Brooklyn,NY,11213,Crown Height,8,,small,bodega,False,False,False,False,False,False,False,False,False,False,False,False,False,False,False,False,False,False,False,False,False,,Keil Troisi,2011-01-31 18:52:18,2011-01-17 00:00:00,40.6711388,-73.933548
New Dean Grocery,486 Dean St,Brooklyn,NY,11217,Prospect Heights,8,,small,bodega,False,False,False,True,False,False,False,False,False,False,False,True,False,False,False,False,False,False,False,False,False,,Mara Gittleman,2011-01-31 18:52:25,2011-01-17 00:00:00,40.681273,-73.974103
Buffalo Supermarket,1608 Sterling Pl,Brooklyn,NY,11213,,8,True,small,bodega,False,True,False,True,False,False,False,False,False,False,False,True,False,False,False,False,False,False,False,False,False,,Meghan Linick,2011-01-31 18:52:34,2011-01-17 00:00:00,40.6711338,-73.9254925
Brooklyn Deli,684 Franklin Ave,Brooklyn,NY,11238,Crown Heights,8,True,small,bodega,False,False,False,True,False,False,False,False,False,False,False,True,False,False,False,False,False,False,False,False,True,,Caroline Nagy,2011-01-31 18:52:52,2011-01-17 00:00:00,40.675196,-73.956567
Sur's Fish,772 Nostrand Ave,Brooklyn,NY,11216,Crown Heights,8,,specialty,seafood,False,False,False,False,False,False,False,False,False,False,False,False,False,False,False,False,False,False,False,False,False,,Jabir Suluki,2011-01-31 18:53:04,2011-01-17 00:00:00,40.672243,-73.950491
New Dean Grocery,486 Dean St,Brooklyn,NY,11217,Prospect Heights,8,,small,bodega,False,False,False,True,False,False,False,False,False,False,False,True,False,False,False,False,False,False,False,False,False,,Mara Gittleman,2011-01-31 18:53:04,2011-01-17 00:00:00,40.681273,-73.974103
Jalal Express Deli and Grocery,628 Nostrand Ave,Brooklyn,NY,11216,Crown Heights,8,,small,bodega,False,False,False,True,False,False,False,False,False,False,False,True,False,False,False,False,False,False,False,False,False,,Heewon Lee,2011-01-31 18:53:06,2011-01-17 00:00:00,40.6769271,-73.9498642
NSA,1410 Utica Ave,Brooklyn,NY,11203,Crown Heights,8,True,large,supermarket,False,False,False,False,True,False,False,False,False,False,False,False,False,False,True,True,False,True,False,False,False,,Meaghan Linick,2011-01-31 18:54:10,2011-01-17 00:00:00,40.6381336,-73.928962
Danny Grocery,416 Prospect Pl,Brooklyn,NY,11238,Crown Heights,8,True,small,bodega,False,True,False,True,False,False,False,False,False,False,False,True,False,False,False,False,False,False,False,False,False,,Caroline Nagy,2011-01-31 18:54:35,2011-01-17 00:00:00,40.6763001,-73.9625066
Deli Grocery,1117 Rogers Ave,Brooklyn,NY,11226,Crown Heights,8,True,small,bodega,False,True,False,True,False,False,False,False,False,False,False,True,False,False,False,False,False,False,False,False,False,,Jabir Suluki,2011-01-31 18:54:47,2011-01-17 00:00:00,40.642612,-73.951271
Utica Express,214 Utica Ave,Brooklyn,NY,11213,,8,True,small,bodega,False,False,False,False,False,False,False,False,False,False,False,False,False,False,False,False,False,False,False,False,False,,Meaghan Linick,2011-01-31 18:55:41,2011-01-17 00:00:00,40.6715876,-73.9308251
Haifa Market,263 Flatbush Ave,Brooklyn,NY,11217,Prospect Heights,8,True,small,bodega,False,False,False,True,False,False,False,True,False,False,False,False,False,False,False,False,False,False,False,False,True,,Mara Gittleman,2011-01-31 18:55:49,2011-01-17 00:00:00,40.6800132,-73.9742504
Washington Food Center,816 Washington Ave,Brooklyn,NY,11238,Crown Heights,8,True,small,bodega,False,True,False,True,False,False,False,False,False,False,False,True,False,False,False,False,False,False,False,False,False,,Caroline Nagy,2011-01-31 18:55:53,2011-01-17 00:00:00,40.673443,-73.963225
Kings 99cent,625 Nostrand Ave,Brooklyn,NY,11216,Crown Heights,8,,small,convenience store,False,False,False,False,False,False,False,False,False,False,False,True,False,False,False,False,False,False,False,False,False,,Heewon Lee,2011-01-31 18:56:02,2011-01-17 00:00:00,40.675622,-73.9496829
N A Candy Store,782 Franklin Ave,Brooklyn,NY,11238,Crown Heights,8,,small,bodega,False,False,False,False,False,False,False,False,False,False,False,False,False,False,False,False,False,False,False,False,False,,Caroline Nagy,2011-01-31 18:56:03,2011-01-17 00:00:00,40.671847,-73.957836
Park Place Candy & Grocery,176 Park Pl,Brooklyn,NY,11238,Prospect Heights,8,,small,bodega,False,False,False,False,False,False,False,False,False,False,False,True,False,False,False,False,False,False,False,False,False,,Mara Gittleman,2011-01-31 18:56:33,2011-01-17 00:00:00,40.6772568,-73.9719668
"Essential Cakes, Inc. ",886 Fulton St,Brooklyn,NY,11238,Fort Greene,8,True,specialty,bakery,False,False,False,False,False,False,False,False,False,False,False,False,False,False,False,False,False,False,False,False,False,"fresh fruit and vegetables (3 or more), low fat milk, whole wheat/grain bread, 100% juice (no sugar added) [juice bar], organics (5 or more), nuts, cakes",Jacqueline King,2011-01-31 18:56:37,2011-01-17 00:00:00,40.6831113,-73.9656353
Tasty Bites Restaurant and Bakery,1456 St Johns Pl,Brooklyn,NY,11213,Crown Heights,8,,specialty,bakery,False,False,False,False,False,False,False,False,False,False,False,False,False,False,False,False,False,False,False,False,False,,Meaghan Linick,2011-01-31 18:56:48,2011-01-17 00:00:00,40.670259,-73.930115
Shorey Deli & Grocery,801 Franklin Ave,Brooklyn,NY,11238,Crown Heights,8,True,small,bodega,False,False,False,True,False,False,False,False,False,False,False,False,False,False,False,False,False,False,False,False,False,,Caroline Nagy,2011-01-31 18:57:45,2011-01-17 00:00:00,40.671594,-73.957313
Newstand & Smoke Shop ,377 Flatbush Ave,Brooklyn,NY,11238,Prospect Heights,8,,small,bodega,False,False,False,False,False,False,False,False,False,False,False,False,False,False,False,False,False,False,False,False,False,,Maria Mia,2011-01-31 18:57:57,2011-01-17 00:00:00,40.6765497,-73.9718072
Deli and Grocery,684 Nostrand Ave,Brooklyn,NY,11216,Crown Heights,8,True,small,bodega,False,False,False,True,False,False,False,False,False,False,False,True,False,False,False,False,False,False,False,False,False,,Heewon Lee,2011-01-31 18:58:19,2011-01-17 00:00:00,40.674974,-73.950171
Adonijah Health Food Store,202 Utica Ave,Brooklyn,NY,11213,Crown Heights,8,,specialty,health,False,False,False,False,False,False,False,False,False,False,False,False,False,False,False,False,False,False,False,False,False,,Christopher Abibadessa,2011-01-31 18:58:19,2011-01-17 00:00:00,40.671874,-73.931163
Deli Food Plaza Corp,718 Franklin Ave,Brooklyn,NY,11238,Crown Heights,8,True,small,bodega,False,False,False,True,False,False,False,True,False,False,False,True,False,False,False,False,False,False,False,False,False,,Caroline Nagy,2011-01-31 18:58:50,2011-01-17 00:00:00,40.6740339,-73.9568696
Espinal Grocery Store,176 Underhill Ave,Brooklyn,NY,11238,Prospect Heights,8,True,small,bodega,False,False,False,True,False,False,False,False,False,False,False,False,False,False,False,False,False,False,False,False,False,,Maria Mia,2011-01-31 18:58:53,2011-01-17 00:00:00,40.6751709,-73.9668058
Penas Food Market,598 Vanderbilt Ave,Brooklyn,NY,11238,Prospect Heights,8,True,small,bodega,False,False,False,True,False,False,False,False,False,False,False,True,False,False,False,False,False,False,False,False,False,,Maria Mia,2011-01-31 19:00:10,2011-01-17 00:00:00,40.678468,-73.968917
Prospects Deli and Grocery,669 Nostrand Ave,Brooklyn,NY,11216,Crown Heights,8,,small,bodega,False,True,False,False,False,False,False,False,False,False,False,True,False,False,False,False,False,False,False,False,False,,Heewon Lee,2011-01-31 19:00:14,2011-01-17 00:00:00,40.6743445,-73.9500557
MET Food,640 Vanderbilt Ave,Brooklyn,NY,11238,Prospect Heights,8,True,large,supermarket,False,False,False,False,False,False,False,False,False,False,False,False,False,False,False,False,False,True,False,False,False,,Maria Mia,2011-01-31 19:00:58,2011-01-17 00:00:00,40.67701,-73.969121
Gabriel Deli Group,689 Nostrand Ave,Brooklyn,NY,11216,Crown Heights,8,,small,bodega,False,False,False,False,False,False,False,False,False,False,False,True,False,False,False,False,False,False,False,False,False,,Heewon Lee,2011-01-31 19:01:44,2011-01-17 00:00:00,40.6737277,-73.9501182
Ack Deli Grocery,1430 St Johns Pl,Brooklyn,NY,11213,Crown Heights,8,True,small,bodega,False,False,False,False,False,False,False,False,False,False,False,True,False,False,False,False,False,False,False,False,False,,Nick Juravich,2011-01-31 19:03:04,2011-01-17 00:00:00,40.670371,-73.931133
Ilyas Mini Market,928 Fulton St,Brooklyn,NY,11238,Prospect Heights,8,,small,bodega,False,False,False,False,False,False,False,False,False,False,False,True,False,False,False,False,False,False,False,False,False,,Maria Mia,2011-01-31 19:03:35,2011-01-17 00:00:00,40.682633,-73.963844
All Wae Al Akhdare,1351 St Johns Pl,Brooklyn,NY,11213,Crown Height,8,True,small,bodega,False,False,False,False,False,False,False,False,False,False,False,False,False,False,False,False,False,False,False,False,False,,Keil Troisi,2011-01-31 19:04:09,2011-01-17 00:00:00,40.6708578,-73.9332707
Island Gourmet Deli,321 Utica Ave,Brooklyn,NY,11213,Crown Heights,8,True,small,bodega,False,False,False,True,False,False,False,False,False,False,False,True,False,False,False,False,False,False,False,False,True,,Nick Juravich,2011-01-31 19:04:24,2011-01-17 00:00:00,40.6669819,-73.9312752
More Light Utica ,409 Utica Ave,Brooklyn,NY,11213,Crown Heights,8,True,small,bodega,False,True,False,False,False,False,False,False,False,False,False,True,False,False,False,False,False,False,False,False,False,,Christopher Abbadessa,2011-01-31 19:04:26,2011-01-17 00:00:00,40.664496,-73.931171
909 Fulton Grocery and Deli,909 Fulton St,Brooklyn,NY,11238,Prospect Heights,8,,small,bodega,False,False,False,False,False,False,False,False,False,False,False,True,False,False,False,False,False,False,False,False,False,,Maria Mia,2011-01-31 19:04:27,2011-01-17 00:00:00,40.683598,-73.9667166
Big Blue Deli,1508 St Johns Pl,Brooklyn,NY,11213,Crown Heights,8,True,small,bodega,False,False,False,True,False,False,False,False,False,False,False,False,False,False,False,False,False,False,False,False,False,,Nick Juravich,2011-01-31 19:05:22,2011-01-17 00:00:00,40.67043,-73.9284091
Gig Young Bakery,366 Utica Ave,Brooklyn,NY,11213,Crown Heights ,8,True,specialty,bakery,False,True,False,False,False,False,False,False,False,False,False,False,False,False,False,False,False,False,False,False,False,,Christopher Abbadessa,2011-01-31 19:05:36,2011-01-17 00:00:00,40.665649,-73.931736
1-Stop Groceries Plus,188 Utica Ave,Brooklyn,NY,11213,Crown Heights,8,True,small,bodega,False,False,False,True,False,False,False,True,False,False,False,True,False,False,False,False,False,False,False,False,True,,Nick Juravett,2011-01-31 19:05:39,2011-01-17 00:00:00,40.672513,-73.931078
Mario's Fish Market,251 Schenectady Ave,Brooklyn,NY,11213,Crown Height,8,,specialty,seafood,False,False,False,False,False,False,False,False,False,False,False,False,False,False,False,True,False,False,False,False,False,,Keil Troisi,2011-01-31 19:05:54,2011-01-17 00:00:00,40.670026,-73.9335289
____ ______ & Grocery,309 Utica Ave,Brooklyn,NY,11213,Crown Heights,8,True,small,bodega,False,False,False,False,False,False,False,False,False,False,False,True,False,False,False,False,False,False,False,False,False,,Christopher Abbadessa,2011-01-31 19:06:44,2011-01-17 00:00:00,40.6674723,-73.9312189
Juwar Mori Mahet,151 Rochester Ave,Brooklyn,NY,11213,Crown Heights,8,True,small,bodega,False,True,False,False,False,False,False,False,False,False,False,True,False,False,False,False,False,False,False,False,False,,Nick Juravich,2011-01-31 19:06:49,2011-01-17 00:00:00,40.6738826,-73.9278545
Eden Farm,301 Utica Ave,Brooklyn,NY,11213,Crown Heights,8,True,small,green grocer,False,False,False,False,False,False,False,True,False,False,False,True,False,False,False,False,False,True,False,False,True,,Nick Juravett,2011-01-31 19:06:51,2011-01-17 00:00:00,40.6676754,-73.9311956
Khalid Food Center,228 Albany Ave,Brooklyn,NY,11213,Crown Height,8,,small,bodega,False,False,False,False,False,False,False,False,False,False,False,False,False,False,False,False,False,False,False,False,True,,Keil Troisi,2011-01-31 19:07:22,2011-01-17 00:00:00,40.672671,-73.939338
Ujama Health Foods,398 Utica Ave,Brooklyn,NY,11213,Crown Heights,8,,specialty,health,False,True,False,False,False,False,False,False,False,False,False,False,False,False,False,False,False,True,False,False,False,juice,Nick Juravett,2011-01-31 19:07:46,2011-01-17 00:00:00,40.6648502,-73.9317898
Meat Market,587 Franklin Ave,Brooklyn,NY,11238,Crown Heights,8,,small,bodega,False,False,False,True,False,False,False,False,False,False,False,False,False,False,False,False,False,False,False,False,False,,Ajamu Brown,2011-01-31 19:08:14,2011-01-17 00:00:00,40.678406,-73.95488
Moca Food Grocery Corp,352 Utica Ave,Brooklyn,NY,11213,Crown Heights,8,True,small,bodega,False,False,False,False,False,False,False,False,False,False,False,True,False,False,False,False,False,False,False,False,False,,Nick Juravett,2011-01-31 19:08:35,2011-01-17 00:00:00,40.6659574,-73.9316877
DNY Natural Land,320 Flatbush Ave,Brooklyn,NY,11238,Prospect Heights,6,True,large,midsized market,False,False,False,False,True,False,False,False,False,True,False,False,False,False,False,False,False,True,False,False,False,,J. King,2011-01-31 19:08:41,2011-01-17 00:00:00,40.6771211,-73.9726188
Family Grocery,224 Albany Ave,Brooklyn,NY,11213,Crown Height,8,True,small,bodega,False,False,False,False,False,False,False,False,False,False,False,False,False,False,False,False,False,False,False,False,False,,Keil Troisi,2011-01-31 19:08:42,2011-01-17 00:00:00,40.672948,-73.939323
Conrade's Bakery,299 Utica Ave,Brooklyn,NY,11213,Crown Heights,8,True,specialty,bakery,False,True,False,False,False,False,False,False,False,False,False,False,False,False,False,False,False,False,False,False,False,,Christopher Abbadessa,2011-01-31 19:08:45,2011-01-17 00:00:00,40.6679476,-73.931077
Associated Market,243 Schenectady Ave,Brooklyn,NY,11213,,8,,large,supermarket,False,False,False,False,False,False,False,False,False,False,False,False,False,False,False,False,False,False,False,False,False,,Jeff Heehs,2011-01-31 19:09:49,2011-01-17 00:00:00,40.6703114,-73.9336867
St. Johns Grocery Crop.,1440 St Johns Pl,Brooklyn,NY,11213,Crown Heights,8,True,small,bodega,False,False,False,False,False,False,False,False,False,False,False,False,False,False,False,False,False,False,False,False,False,,Christopher Abbadessa,2011-01-31 19:09:49,2011-01-17 00:00:00,40.6706923,-73.9304704
Brooklyn Sub,751 Bergen St,Brooklyn,NY,11238,Crown Heights,8,,small,bodega,False,False,False,True,False,False,False,True,False,False,False,True,False,False,False,False,False,True,False,False,False,,Ajamu Brown,2011-01-31 19:09:55,2011-01-17 00:00:00,40.6785317,-73.9635577
"Bergen Food Corp. ""King of Delis""",152 Albany Ave,Brooklyn,NY,11213,Crown Height,8,,small,bodega,False,False,False,False,False,False,False,False,False,False,False,False,False,False,False,False,False,False,False,False,False,,Keil Troisi,2011-01-31 19:10:00,2011-01-17 00:00:00,40.67539,-73.939169
Tropical House Baking,267 Schenectady Ave,Brooklyn,NY,11213,,8,,specialty,bakery,False,False,False,False,False,False,False,False,False,False,False,False,False,False,False,False,False,False,False,False,False,,Jeff Heehs,2011-01-31 19:10:50,2011-01-17 00:00:00,40.669476,-73.933605
Gourmet Deli,387 Flatbush Ave,Brooklyn,NY,11238,Prospect Heights,8,True,small,bodega,False,False,False,True,False,False,False,False,False,False,False,True,False,False,False,False,False,False,False,False,False,,J. King,2011-01-31 19:10:52,2011-01-17 00:00:00,40.6760701,-73.971451
Key Food,801 Washington Ave,Brooklyn,NY,11238,Crown Heights,8,,large,supermarket,False,False,False,False,False,False,False,False,False,True,False,False,False,False,False,True,False,False,False,False,False,,Ajamu Brown,2011-01-31 19:11:04,2011-01-17 00:00:00,40.6724955,-73.9627256
A.C. Grocery,127 Albany Ave,Brooklyn,NY,11213,Crown Height,8,True,small,bodega,False,False,False,False,False,False,False,False,False,False,False,False,False,False,False,False,False,False,False,False,False,,Keil Troisi,2011-01-31 19:11:20,2011-01-17 00:00:00,40.6764296,-73.9385884
DNY Natural Land,322 Flatbush Ave,Brooklyn,NY,11238,Prospect Heights,6,True,small,green grocer,False,True,False,True,False,False,False,True,False,False,False,True,True,False,False,False,False,True,False,False,False,Fresh fish and meat,Crystal Dixon,2011-01-31 19:13:49,2011-01-17 00:00:00,40.6770505,-73.9725755
Saba Deli & Grocery,232 Underhill Ave,Brooklyn,NY,11238,Prospect Heights,8,True,small,bodega,False,True,False,True,False,False,False,True,False,False,False,True,False,False,False,False,False,True,False,False,True,"yogurt, cheese",Jacqueline King,2011-01-31 19:14:10,2011-01-17 00:00:00,40.673663,-73.967481
Angelica Food Mart,101 Kingston Ave,Brooklyn,NY,11213,Crown Height,8,True,small,bodega,False,False,False,False,False,False,False,False,False,False,False,True,False,False,False,False,False,False,False,False,False,,Keil Troisi,2011-01-31 19:14:34,2011-01-17 00:00:00,40.67653,-73.941218
New Utica Produce Corp.,282 Utica Ave,Brooklyn,NY,11213,Crown Heights,8,True,small,green grocer,False,False,False,False,False,False,False,True,False,False,False,True,False,False,False,False,False,True,False,False,True,,Shamela Davis,2011-01-31 19:14:36,2011-01-17 00:00:00,40.6687902,-73.9311631
Gourmet Deli,387 Flatbush Ave,Brooklyn,NY,11238,Prospect Heights,8,,small,bodega,False,False,False,True,False,False,False,False,False,False,False,True,False,False,False,False,False,False,False,False,False,,Crystal Dixon,2011-01-31 19:14:37,2011-01-17 00:00:00,40.6760701,-73.971451
Good Star Deli & Grocery,1259 St Johns Pl,Brooklyn,NY,11213,Crown Heights,8,True,,bodega,False,False,False,False,False,False,False,False,False,False,False,False,False,False,False,False,False,False,False,False,False,,Jeff Heehs,2011-01-31 19:14:46,2011-01-17 00:00:00,40.671056,-73.936747
Ack Deli Grocery,1430 St Johns Pl,Brooklyn,NY,11213,Crown Heights,8,,small,bodega,False,False,False,False,False,False,False,False,False,False,False,False,False,False,False,False,False,False,False,False,False,,Jeff Haly,2011-01-31 19:15:14,2011-01-17 00:00:00,40.670371,-73.931133
Deli and Convenience,310 Flatbush Ave,Brooklyn,NY,11217,Prospect Heights,8,,small,bodega,False,False,False,True,False,False,False,False,False,False,False,True,False,False,False,False,False,False,False,False,False,,Crystal Dixon,2011-01-31 19:15:33,2011-01-17 00:00:00,40.6773798,-73.9728018
Marwan Deli Grocery,260 Utica Ave,Brooklyn,NY,11213,Crown Heights,8,True,small,bodega,False,True,False,True,False,False,False,False,False,False,False,True,False,False,False,False,False,False,False,False,False,,Shameka Davis,2011-01-31 19:15:34,2011-01-17 00:00:00,40.6697268,-73.9310736
DPN Superstore,1551 Bergen St,Brooklyn,NY,11213,Crown Heights,8,,small,bodega,False,False,False,False,False,False,False,False,False,False,False,False,False,False,False,False,False,False,False,False,False,,Jeff Haly,2011-01-31 19:15:57,2011-01-17 00:00:00,40.6752603,-73.9321688
Push Push Grocery & Variety Store,250 Kingston Ave,Brooklyn,NY,11213,Crown Height,8,,small,bodega,False,False,False,False,False,False,False,False,False,False,False,False,False,False,False,False,False,False,False,False,False,,Jeff Heehs,2011-01-31 19:16:40,2011-01-17 00:00:00,40.670999,-73.9423769
Superior Market,1503 St Johns Pl,Brooklyn,NY,11213,Crown Heights,8,,large,midsized market,False,False,False,False,False,False,False,False,False,False,False,False,False,False,False,False,False,False,False,False,False,,Shameka Davis,2011-01-31 19:16:44,2011-01-17 00:00:00,40.670676,-73.928333
M & S Fruit and Vegetable Market,639 Vanderbilt Ave,Brooklyn,NY,11238,Prospect Heights,8,True,large,midsized market,False,False,False,False,False,False,False,False,False,True,False,False,False,False,False,False,False,True,False,False,False,,Crystal Dixon,2011-01-31 19:16:51,2011-01-17 00:00:00,40.6778059,-73.968469
NSA Food Market,1420 St Johns Pl,Brooklyn,NY,11213,Crown Heights,8,True,large,supermarket,False,False,False,False,False,False,False,False,False,False,False,False,False,False,False,False,False,False,False,False,False,,Jeff Haly,2011-01-31 19:17:27,2011-01-17 00:00:00,40.6705832,-73.9313201
Katabi Grocery,350 Utica Ave,Brooklyn,NY,11213,Crown Heights,8,True,small,bodega,False,True,False,True,False,False,False,False,False,False,False,True,False,False,False,False,False,False,False,False,False,,Shameka Davis,2011-01-31 19:17:48,2011-01-17 00:00:00,40.66601,-73.9316429
Vanderbilt,591 Vanderbilt Ave,Brooklyn,NY,11238,Prospect Heights,8,True,small,bodega,False,True,False,True,False,False,False,False,False,False,False,True,False,False,False,False,False,False,False,False,True,,Crystal Dixon,2011-01-31 19:18:14,2011-01-17 00:00:00,40.6798739,-73.9678875
Alwahib Gold Star Deli,1308 Prospect Pl,Brooklyn,NY,11213,Crown Heights,8,True,small,bodega,False,False,False,False,False,False,False,False,False,False,False,False,False,False,False,False,False,False,False,False,False,,Jeff Hahs,2011-01-31 19:18:34,2011-01-17 00:00:00,40.673238,-73.933188
M & S Fruit & Vegetable,639 Vanderbilt Ave,Brooklyn,NY,11238,Prospect Heights,8,True,small,green grocer,False,False,False,True,False,False,False,True,False,False,False,True,False,False,False,False,False,True,False,False,True,,Jacqueline King,2011-01-31 19:18:58,2011-01-17 00:00:00,40.6778059,-73.968469
St. John's Marketplace,323 Underhill Ave,Brooklyn,NY,11238,Prospect Heights,8,True,small,bodega,False,True,False,True,False,False,False,True,False,False,False,True,False,False,False,False,False,False,False,False,True,,Crystal Dixon,2011-01-31 19:19:21,2011-01-17 00:00:00,40.6730809,-73.9674124
Shabbos Fish Market,417 Kingston Ave,Brooklyn,NY,11213,Crown Heights,9,,,seafood,False,False,False,False,False,False,False,False,False,False,False,False,False,False,False,False,False,False,False,False,False,,Mara Gittleman,2011-01-31 19:19:35,2010-07-08 00:00:00,40.664613,-73.942429
Pinkey & Brain Deli,226 Schenectady Ave,Brooklyn,NY,11213,Crown Heights,8,,small,bodega,False,False,False,False,False,False,False,False,False,False,False,False,False,False,False,False,False,False,False,False,False,,Jacqueline Taylor,2011-01-31 19:19:50,2011-01-17 00:00:00,40.671507,-73.933952
Park-Way Meats,257 Schenectady Ave,Brooklyn,NY,11213,Crown Heights,8,True,specialty,butcher,False,False,False,False,False,False,False,False,False,False,False,False,False,False,False,True,False,False,False,False,False,,Jacqueline Taylor,2011-01-31 19:20:09,2011-01-17 00:00:00,40.669748,-73.933524
Hong's Fresh Fish Market,324 Utica Ave,Brooklyn,NY,11213,,8,True,specialty,seafood,False,False,False,False,False,True,False,False,False,False,False,False,False,False,False,False,False,False,False,False,False,,Shameka Davis,2011-01-31 19:20:17,2011-01-17 00:00:00,40.6668326,-73.9313375
Skyway Deli,276 Flatbush Ave,Brooklyn,NY,11217,Prospect Heights,6,,small,bodega,False,False,False,False,False,False,False,True,False,False,False,False,False,False,False,False,False,True,False,False,False,,Damien Taylor,2011-01-31 19:20:18,2011-01-17 00:00:00,40.6789206,-73.9738847
New Deli Grocery,269 Troy Ave,Brooklyn,NY,11213,Crown Heights,8,,small,bodega,False,False,False,True,False,False,False,False,False,False,False,False,False,False,False,False,False,False,False,False,False,,Jacqueline Taylor,2011-01-31 19:20:47,2011-01-17 00:00:00,40.6698499,-73.936403
Stop 4 Deli,137 Kingston Ave,Brooklyn,NY,11213,Crown Height,8,True,small,bodega,False,False,False,False,False,False,False,False,False,False,False,False,False,False,False,False,False,False,False,False,False,,Jeff Heehs,2011-01-31 19:20:54,2011-01-17 00:00:00,40.6751999,-73.941389
New Grammah Food Market,555 Lefferts Ave,Brooklyn,NY,11225,Crown Heights,9,,small,bodega,False,False,False,True,False,False,False,False,False,False,False,True,False,False,False,False,False,False,False,False,False,,Mara Gittleman,2011-01-31 19:21:05,2010-07-08 00:00:00,40.6628513,-73.9429303
C&S Meats Poultry,344 Utica Ave,Brooklyn,NY,11213,Crown Heights,8,True,specialty,butcher,False,False,False,False,False,False,False,False,False,False,False,False,False,False,True,True,False,False,False,False,False,,Shameka Davis,2011-01-31 19:21:12,2011-01-17 00:00:00,40.666319,-73.931621
Pacific Grocery & Deli,1647 Pacific St,Brooklyn,NY,11213,Crown Height,8,,small,bodega,False,False,False,False,False,False,False,False,False,False,False,False,False,False,False,False,False,False,False,False,False,,Jeff Heehs,2011-01-31 19:22:09,2011-01-17 00:00:00,40.677099,-73.93606
Duane Reade,3008 Flatbush Ave,Brooklyn,NY,11234,Prospect Heights,8,True,small,convenience store,False,True,False,True,False,False,False,False,False,False,False,True,False,False,False,False,False,False,False,False,False,1 loaf of whole wheat bread,___,2011-01-31 19:22:12,2011-01-17 00:00:00,40.5965847,-73.908107
Crown Kosher Meat Market,413 Kingston Ave,Brooklyn,NY,11213,Crown Heights,8,,specialty,butcher,False,False,False,False,False,False,False,False,False,False,False,False,False,False,True,True,False,False,False,False,False,prepared food items,,2011-01-31 19:22:14,2010-07-18 00:00:00,40.6647109,-73.942421
Family Grocery,567 Lefferts Ave,Brooklyn,NY,11225,Crown Heights,9,,small,bodega,False,True,False,False,False,False,False,False,False,False,False,True,False,False,False,False,False,False,False,False,False,,Mara Gittleman,2011-01-31 19:22:29,2010-07-08 00:00:00,40.6628851,-73.9424028
The Market Place,271 Flatbush Ave,Brooklyn,NY,11217,Prospect Heights,8,True,small,bodega,False,True,False,True,False,False,False,True,False,False,False,True,False,False,False,False,False,True,False,False,True,,Crystal Dixon,2011-01-31 19:23:33,2011-01-17 00:00:00,40.6797175,-73.9742704
Albany House Food Center,1250 Park Pl,Brooklyn,NY,11213,Crown Height,8,True,small,bodega,False,False,False,False,False,False,False,False,False,False,False,False,False,False,False,False,False,False,False,False,False,,Jeff Heehs,2011-01-31 19:23:41,2011-01-17 00:00:00,40.672667,-73.9363895
Community Deli Grocery,73 Troy Ave,Brooklyn,NY,11213,Crown Heights,8,,small,bodega,False,True,False,True,False,False,False,False,False,False,False,False,False,False,False,False,False,False,False,False,True,,Jacqueline Taylor,2011-01-31 19:24:10,2011-01-17 00:00:00,40.6769948,-73.9358349
Family Dollar,554 Lefferts Blvd,Brooklyn,NY,11213,Crown Heights,9,,small,convenience store,False,False,False,False,False,False,False,False,False,False,False,False,False,False,False,False,False,False,False,False,False,,,2011-01-31 19:24:36,2010-07-18 00:00:00,40.6768572,-73.9348224
Family Food Center,545 Kingston Ave,Brooklyn,NY,11203,Crown Heights,9,,small,bodega,False,False,False,True,False,False,False,True,False,False,False,True,False,False,False,False,False,False,False,False,True,,Brianna Sears,2011-01-31 19:25:17,2010-07-08 00:00:00,40.660525,-73.9425834
Albany Bakery,725 Kingston Ave,Brooklyn,NY,11203,Crown Heights,8,,specialty,bakery,False,True,False,False,False,False,False,False,False,False,False,False,False,False,False,False,False,False,False,False,False,prepared food items,,2011-01-31 19:25:41,2010-07-18 00:00:00,40.6576449,-73.9422977
2080 Deli Grocery,232 Troy Ave,Brooklyn,NY,11213,Crown Height,8,True,small,bodega,False,False,False,False,False,False,False,False,False,False,False,False,False,False,False,False,False,False,False,False,False,,NA,2011-01-31 19:26:35,2011-01-17 00:00:00,40.671554,-73.936582
Ohmade Deli Grocery,1367 Sterling Pl,Brooklyn,NY,11213,Crown Height,8,,small,bodega,False,False,False,False,False,False,False,False,False,False,False,False,False,False,False,False,False,False,False,False,False,,Jacqueline Taylor,2011-01-31 19:27:47,2011-01-17 00:00:00,40.671902,-73.933264
Daly's Grocery,1068 Nostrand Ave,Brooklyn,NY,11225,Crown Heights,9,,small,green grocer,False,True,False,True,False,False,False,True,False,False,False,True,False,False,False,False,False,False,False,False,True,NJ Peaches,Mara Gittleman,2011-01-31 19:29:10,2010-07-08 00:00:00,40.661942,-73.951076
Garden of Eatin',5189 Broadway,Bronx,NY,10034,Marble Hill,8,,small,bodega,False,True,False,True,False,False,False,True,False,False,False,True,False,False,False,False,False,False,False,False,True,,Brian Goldblatt,2011-01-31 19:29:30,2011-01-28 00:00:00,40.874522,-73.910404
Habin Express Deli Grocery,5223 Broadway,Bronx,NY,10034,,8,True,small,bodega,False,False,False,False,False,False,False,True,False,False,False,False,False,False,False,False,False,False,False,False,False,,,2011-01-31 19:30:21,2011-01-26 00:00:00,40.8751869,-73.909503
No Name,950 Lincoln Pl,Brooklyn,NY,11216,Crown Heights,9,,small,bodega,False,False,False,True,False,False,False,False,False,False,False,True,False,False,False,False,False,False,False,False,False,,Mara Gittleman,2011-01-31 19:31:23,2010-07-08 00:00:00,40.6704908,-73.9449971
230 Kelvin Deli Grocery Corp,231 W 230th St,Bronx,NY,10463,Marble Hill,8,True,small,bodega,False,False,False,True,False,False,False,True,False,False,False,True,False,False,False,False,False,False,False,False,True,,Brian Goldblatt,2011-01-31 19:31:28,2011-01-28 00:00:00,40.877986,-73.907176
France Bakery,5219 Broadway,Bronx,NY,10034,Marble Hill,8,True,specialty,bakery,False,False,False,False,False,False,False,False,False,False,False,False,False,False,False,False,False,False,False,False,False,clean and nice smelling,none,2011-01-31 19:31:57,2011-01-28 00:00:00,40.87509,-73.90963
Edward Food Center,5193 Broadway,Bronx,NY,10034,Marble Hill,8,True,small,bodega,False,True,False,True,False,False,False,True,False,False,False,True,False,False,False,False,False,False,False,False,True,Accepts WIC,Brian Goldblatt,2011-01-31 19:32:57,2011-01-28 00:00:00,40.874629,-73.910205
Rincon Dominicano Grocery Store,1080 Lincoln Pl,Brooklyn,NY,11213,Crown Heights,9,,small,bodega,False,True,False,True,False,False,False,False,False,False,False,True,False,False,False,False,False,False,False,False,True,,Mara Gittleman,2011-01-31 19:33:09,2010-07-08 00:00:00,40.6700919,-73.940747
Sally's,126 W 228th St,Bronx,NY,10463,,8,True,small,bodega,False,True,False,True,False,False,False,True,False,False,False,True,False,False,False,False,False,True,False,False,True,accepts WIC,Brian Goldblatt,2011-01-31 19:33:44,2011-01-26 00:00:00,40.8763877,-73.9084954
One Brother Mini Market,1104 Nostrand Ave,Brooklyn,NY,11225,Crown Heights,9,,small,bodega,False,True,False,True,False,False,False,False,False,False,False,True,False,False,False,False,False,False,False,False,True,,Mara Gittleman,2011-01-31 19:34:13,2010-07-08 00:00:00,40.6608583,-73.9506703
Deli Pizza Donuts,219 W 230th St,Bronx,NY,10463,Marble Hill,8,True,small,bodega,False,False,False,True,False,False,False,True,False,False,False,True,False,False,False,False,False,False,False,False,False,wic,Brian Goldblatt,2011-01-31 19:34:23,2011-01-28 00:00:00,40.8773305,-73.907075
O Henry Grocery and Deli,463 E New York Ave,Brooklyn,NY,11225,Prospect-Lefferts Gardens,9,,small,bodega,False,False,False,False,False,False,False,False,False,False,False,False,False,False,False,False,False,False,False,False,False,,HSPS Farm,2011-01-31 19:34:24,2010-07-18 00:00:00,40.661981,-73.947357
Allan's Quality Bakery,1109 Nostrand Ave,Brooklyn,NY,11225,Crown Heights,9,,specialty,bakery,False,True,False,False,False,False,False,False,False,False,False,False,False,False,False,False,False,True,False,False,False,,Mara Gittleman,2011-01-31 19:35:00,2010-07-08 00:00:00,40.6605783,-73.9504416
JJJ Food Corp,2701 Sedgwick Ave,Bronx,NY,10468,Kingsbridge Heights,8,True,small,bodega,False,True,False,True,False,False,False,True,False,False,False,True,False,False,False,False,False,False,False,False,True,WIC,Kristin Pederson,2011-02-16 19:38:25,2011-02-04 00:00:00,40.8697555,-73.903565
Derlyn Food Corp,150 W Kingsbridge Rd,Bronx,NY,10468,Kingsbridge Heights,8,True,small,bodega,False,True,False,True,False,False,False,True,False,False,False,True,False,False,False,False,False,False,False,False,True,Accepts WIC,Brian Goldblatt,2011-02-16 19:47:57,2011-02-04 00:00:00,40.8696325,-73.903823
Prince Grocery Candy and Deli Store,131 W Kingsbridge Rd,Bronx,NY,10468,Kingsbridge Heights,8,True,small,bodega,False,False,False,True,False,False,False,True,False,False,False,True,False,False,False,False,False,False,False,False,True,Accepts WIC,Kristin Pederson,2011-02-16 20:31:22,2011-02-04 00:00:00,40.8692293,-73.9030609
Hernandez Grocery,131 W 225th St,Bronx,NY,10463,Marble Hill,8,True,small,bodega,False,False,False,False,False,False,False,True,False,False,False,True,False,False,False,False,False,False,False,False,True,,Kristin Pederson,2011-02-16 20:39:49,2011-02-04 00:00:00,40.8749296,-73.9119453
T & A Grocery,261 W Kingsbridge Rd,Bronx,NY,10463,Kingsbridge Heights,8,,small,bodega,False,True,False,True,False,False,False,False,False,False,False,True,False,False,False,False,False,False,False,False,False,,Brian Goldblatt,2011-02-16 20:56:34,2011-02-04 00:00:00,40.8729733,-73.9053038
Heath Meat-Deli Grocery,3004 Heath Ave,Bronx,NY,10463,Kingsbridge Heights,8,True,small,bodega,False,True,False,True,False,False,False,True,False,False,False,True,False,False,False,False,False,False,False,False,True,accepts WIC,Kristin Pederson,2011-02-16 21:15:18,2011-02-04 00:00:00,40.8759469,-73.902759
Camilo Deli Grocery,251 W Kingsbridge Rd,Bronx,NY,10463,Kingsbridge Heights,8,True,small,bodega,False,False,False,True,False,False,False,True,False,False,False,True,False,False,False,False,False,False,False,False,True,accepts WIC,Brian Goldblatt,2011-02-16 21:21:42,2011-02-04 00:00:00,40.8729388,-73.9049985
France Bakery,5219 Broadway,Bronx,NY,10034,Marble Hill,8,True,specialty,bakery,False,False,False,False,False,False,False,False,False,False,False,False,False,False,False,False,False,False,False,False,False,,Kristin Pederson,2011-02-16 21:24:59,2011-02-03 00:00:00,40.87509,-73.90963
Van Cortlandt Deli,240 W 238th St,Bronx,NY,10463,Kingsbridge,8,True,small,bodega,False,True,False,True,False,False,False,False,False,False,False,True,False,False,False,False,False,False,False,False,False,,Brian Goldblatt,2011-02-16 21:36:15,2011-02-03 00:00:00,40.8849962,-73.9003661
Vargas Deli Grocery,208 W 238th St,Bronx,NY,10463,Kingsbridge,8,True,small,bodega,False,True,False,True,False,False,False,True,False,False,False,True,False,False,False,False,False,False,False,False,True,,Kristin Pederson,2011-02-16 21:47:23,2011-02-03 00:00:00,40.8847779,-73.8995702
151 Deli Grocery Corp,151 W 228th St,Bronx,NY,10463,Kingsbridge,8,,small,bodega,False,True,False,True,False,False,False,True,False,False,False,True,False,False,False,False,False,False,False,False,False,,Kristin Pederson,2011-02-16 21:55:17,2011-02-03 00:00:00,40.87745,-73.909066
Mi Esfuerzo,2690 Webb Ave,Bronx,NY,10468,Kingsbridge Heights,8,True,small,bodega,False,True,False,True,False,False,False,True,False,False,False,True,False,False,False,False,False,False,False,False,True,,Brian Goldblatt,2011-02-16 22:25:47,2011-02-04 00:00:00,40.8688519,-73.901972
Yang's Deli Grocery,141 W 231st St,Bronx,NY,10463,Kingsbridge,8,True,small,bodega,False,True,False,True,False,False,False,True,False,False,False,True,False,False,False,False,False,False,False,False,False,,Brian Goldblatt,2011-02-16 22:29:50,2011-02-03 00:00:00,40.878328,-73.902661
Peter's Newstand,2897 Sedgwick Ave,Bronx,NY,10468,Kingsbridge Heights,8,,small,bodega,False,False,False,False,False,False,False,True,False,False,False,True,False,False,False,False,False,False,False,False,True,,Brian Goldblatt,2011-02-17 03:59:36,2011-02-04 00:00:00,40.8750181,-73.9012503
M.R. Deli Grocery,135 W Kingsbridge Rd,Bronx,NY,10468,Kingsbridge Heights,8,True,small,bodega,False,False,False,True,False,False,False,True,False,False,False,True,False,False,False,False,False,False,False,False,True,,Kristin Pederson,2011-02-17 04:14:11,2011-02-04 00:00:00,40.869416,-73.903087
Hiciano,3118 Bailey Ave,Bronx,NY,10463,Kingsbridge Heights,8,,small,bodega,False,False,False,True,False,False,False,True,False,False,False,True,False,False,False,False,False,False,False,False,True,,Kristin Pederson,2011-02-17 04:19:29,2011-02-04 00:00:00,40.8784165,-73.9020516
Navarette Deli Grocery,148 W 231st St,Bronx,NY,10463,Kingsbridge,8,True,small,bodega,False,False,False,True,False,False,False,True,False,False,False,True,False,False,False,False,False,False,False,False,True,,Kristin Pederson and Brian Goldblatt,2011-02-17 04:23:51,2011-02-03 00:00:00,40.8784871,-73.9036815
Deegan Deli,3002 Bailey Ave,Bronx,NY,10463,Kingsbridge Heights,8,,small,bodega,False,True,False,True,False,False,False,True,False,False,False,True,False,False,False,False,False,False,False,False,True,,Brian Goldblatt,2011-02-17 04:29:28,2011-02-04 00:00:00,40.875981,-73.9040928
Mini Mart Corp,2820 Bailey Ave,Bronx,NY,10463,Kingsbridge,8,True,small,bodega,False,False,False,False,False,False,False,True,False,False,False,True,False,False,False,False,False,False,False,False,True,,Kristin Pederson,2011-02-17 04:35:05,2011-02-03 00:00:00,40.873753,-73.9047159
Mi Boganita,208 W 233rd St,Bronx,NY,10463,Kingsbridge,8,True,small,bodega,False,False,False,True,False,False,False,True,False,False,False,True,False,False,False,False,False,False,False,False,True,accepts WIC,Brian Goldblatt,2011-02-17 04:43:22,2011-02-03 00:00:00,40.8809854,-73.9039323
230 Kelvin Grocery Deli Corporation,231 W 230th St,Bronx,NY,10463,Kingsbridge,8,True,small,bodega,False,False,False,True,False,False,False,True,False,False,False,True,False,False,False,False,False,False,False,False,True,,Brian Goldblatt,2011-02-18 10:04:01,2011-02-04 00:00:00,40.877986,-73.907176
3 Star Stationary Deli & Grocery		,231 W 231st St,Bronx,NY,10463,Kingsbridge,8,True,small,bodega,False,False,False,True,False,False,False,False,False,False,False,True,False,False,False,False,False,False,False,False,False,accepts WIC,Brian Goldblatt,2011-02-18 10:06:16,2011-02-04 00:00:00,40.8796231,-73.9058348
69 Kingsbridge Grocery Inc. ,69 W Kingsbridge Rd,Bronx,NY,10468,Kingsbridge Heights,8,True,small,bodega,False,True,False,True,False,False,False,False,False,False,False,True,False,False,False,False,False,False,False,False,False,accepts WIC,Brian Goldblatt,2011-02-18 10:08:08,2011-02-04 00:00:00,40.8679333,-73.8995679
99 Cent Store,5657 Broadway,Bronx,NY,10463,Kingsbridge,8,True,small,convenience store,False,True,False,True,False,False,False,False,False,False,False,True,False,False,False,False,False,False,False,False,False,,Brian Goldblatt,2011-02-18 10:12:36,2011-02-04 00:00:00,40.88072,-73.9036985
99 Cent Store,5605 Broadway,Bronx,NY,10463,Kingsbridge,8,,small,convenience store,False,False,False,True,False,False,False,False,False,False,False,True,False,False,False,False,False,False,False,False,False,,Brian Goldblatt,2011-02-18 10:23:56,2011-02-04 00:00:00,40.8790475,-73.9046739
A - Z 99 Cent Store	,5213 Broadway,Bronx,NY,10463,Marble Hill,8,True,small,convenience store,False,False,False,False,False,False,False,False,False,False,False,True,False,False,False,False,False,False,False,False,False,,Brian Goldblatt,2011-02-18 10:26:23,2011-02-04 00:00:00,40.8769646,-73.9062108
Albany Grocery,3001 Albany Crescent,Bronx,NY,10463,Kingsbridge,8,,small,bodega,False,True,False,True,False,False,False,True,False,False,False,True,False,False,False,False,False,False,False,False,True,,Brian Goldblatt,2011-02-18 10:30:18,2011-02-04 00:00:00,40.8766341,-73.9014464
Apple Tree Fruit and Vegetable,5590 Broadway,Bronx,NY,10463,Kingsbridge,8,True,small,green grocer,False,False,False,False,False,False,False,True,False,False,False,True,False,False,False,False,False,False,False,False,True,,,2011-02-18 10:34:32,2011-02-04 00:00:00,40.8792116,-73.9043762
Bakery Outlet,5625 Broadway,Bronx,NY,10463,Kingsbridge ,8,True,specialty,bakery,False,True,False,False,False,False,False,False,False,False,False,False,False,False,False,False,False,False,False,False,False,,Brian Goldblatt,2011-02-18 10:36:26,2011-02-04 00:00:00,40.8794201,-73.9044079
BP gas station	,3010 Riverdale Ave,Bronx,NY,10463,Kingsbridge,8,,small,convenience store,False,False,False,True,False,False,False,False,False,False,False,True,False,False,False,False,False,False,False,False,False,,Brian Goldblatt,2011-02-18 10:37:27,2011-02-04 00:00:00,40.880455,-73.90999
BP gas station	,5701 Broadway,Bronx,NY,10463,Kingsbridge,8,,small,convenience store,False,False,False,False,False,False,False,False,False,False,False,False,False,False,False,False,False,False,False,False,False,,Brian Goldblatt,2011-02-18 10:38:27,2011-02-04 00:00:00,40.882095,-73.902946
Broadway Riverdale Meat Market,5587 Broadway,Bronx,NY,10463,Kingsbridge,8,,specialty,butcher,False,True,False,False,False,False,False,False,False,False,False,False,False,False,False,True,False,False,False,False,False,accepts WIC,Brian Goldblatt,2011-03-23 23:18:51,2011-01-27 00:00:00,40.8785469,-73.9050362
Bus Stop Convenience,215 W 231st St,Bronx,NY,10463,Kingsbridge,8,,small,convenience store,False,False,False,False,False,False,False,False,False,False,False,True,False,False,False,False,False,False,False,False,False,,Kristin Pederson,2011-03-23 23:35:56,2011-02-04 00:00:00,40.8792877,-73.9054893
C Town,2891 Sedgwick Ave,Bronx,NY,10468,Kingsbridge Heights,8,True,large,supermarket,False,False,False,False,True,False,False,False,False,False,False,False,False,False,False,True,False,False,False,False,False,,Kristin Pederson and Brian Goldblatt,2011-03-23 23:48:30,2011-02-04 00:00:00,40.8749778,-73.901273
C Town,4918 Broadway,Manhattan,NY,10034,Marble Hill,8,,large,supermarket,False,False,False,False,True,False,False,False,False,False,False,False,False,False,False,True,False,False,False,False,False,accepts WIC,Kristin Pederson and Brian Goldblatt,2011-03-23 23:55:44,2011-02-04 00:00:00,40.8674981,-73.9217187
Candy and Cigar,2636 University Ave,Bronx,NY,10468,Kingsbridge Heights,8,,small,convenience store,False,False,False,False,False,False,False,False,False,False,False,False,False,False,False,False,False,False,False,False,False,,Brian Goldblatt,2011-03-24 00:00:33,2011-02-04 00:00:00,40.867927,-73.900995
Comfort Stationary Grocery,237 W 238th St,Bronx,NY,10463,Kingsbridge,8,,small,convenience store,False,False,False,False,False,False,False,False,False,False,False,True,False,False,False,False,False,False,False,False,False,,Brian Goldblatt,2011-03-24 00:05:31,2011-02-04 00:00:00,40.88502,-73.9003385
Conway,5622 Broadway,Bronx,NY,10463,Kingsbridge,8,,small,convenience store,False,False,False,False,False,False,False,False,False,False,False,True,False,False,False,False,False,False,False,False,False,,Brian Goldblatt,2011-03-24 00:26:37,2011-02-04 00:00:00,40.8785264,-73.9049975
